{
"type": "FeatureCollection",
"name": "ATL_counties_labels",
"crs": { "type": "name", "properties": { "name": "urn:ogc:def:crs:OGC:1.3:CRS84" } },
"features": [
{ "type": "Feature", "properties": { "NAME": "Fayette" }, "geometry": { "type": "Point", "coordinates": [ -84.494196125510427, 33.413949151430977 ] } },
{ "type": "Feature", "properties": { "NAME": "Carroll" }, "geometry": { "type": "Point", "coordinates": [ -85.079746906969305, 33.582822884013993 ] } },
{ "type": "Feature", "properties": { "NAME": "Rockdale" }, "geometry": { "type": "Point", "coordinates": [ -84.026612538945102, 33.654241711977292 ] } },
{ "type": "Feature", "properties": { "NAME": "Cobb" }, "geometry": { "type": "Point", "coordinates": [ -84.576676276372453, 33.941476894058681 ] } },
{ "type": "Feature", "properties": { "NAME": "Forsyth" }, "geometry": { "type": "Point", "coordinates": [ -84.125024252032176, 34.225521862418809 ] } },
{ "type": "Feature", "properties": { "NAME": "Clayton" }, "geometry": { "type": "Point", "coordinates": [ -84.357690497014232, 33.54189167401865 ] } },
{ "type": "Feature", "properties": { "NAME": "Henry" }, "geometry": { "type": "Point", "coordinates": [ -84.154200212590453, 33.453009541357481 ] } },
{ "type": "Feature", "properties": { "NAME": "Dawson" }, "geometry": { "type": "Point", "coordinates": [ -84.170639978922537, 34.444304696265476 ] } },
{ "type": "Feature", "properties": { "NAME": "Bartow" }, "geometry": { "type": "Point", "coordinates": [ -84.840503318931383, 34.237861563521449 ] } },
{ "type": "Feature", "properties": { "NAME": "Newton" }, "geometry": { "type": "Point", "coordinates": [ -83.850190586161474, 33.555055369174944 ] } },
{ "type": "Feature", "properties": { "NAME": "Gwinnett" }, "geometry": { "type": "Point", "coordinates": [ -84.023632056317197, 33.961735017921818 ] } },
{ "type": "Feature", "properties": { "NAME": "Fulton" }, "geometry": { "type": "Point", "coordinates": [ -84.466630892990906, 33.742342404269301 ] } },
{ "type": "Feature", "properties": { "NAME": "Pickens" }, "geometry": { "type": "Point", "coordinates": [ -84.465643430895668, 34.464326308157027 ] } },
{ "type": "Feature", "properties": { "NAME": "Spalding" }, "geometry": { "type": "Point", "coordinates": [ -84.284163712166887, 33.260874815113553 ] } },
{ "type": "Feature", "properties": { "NAME": "Douglas" }, "geometry": { "type": "Point", "coordinates": [ -84.767930816047425, 33.70182790955964 ] } },
{ "type": "Feature", "properties": { "NAME": "Coweta" }, "geometry": { "type": "Point", "coordinates": [ -84.76337023275704, 33.353462724551598 ] } },
{ "type": "Feature", "properties": { "NAME": "Butts" }, "geometry": { "type": "Point", "coordinates": [ -83.95717353105006, 33.287857087026566 ] } },
{ "type": "Feature", "properties": { "NAME": "DeKalb" }, "geometry": { "type": "Point", "coordinates": [ -84.226411961607496, 33.771534996438618 ] } },
{ "type": "Feature", "properties": { "NAME": "Cherokee" }, "geometry": { "type": "Point", "coordinates": [ -84.476204281124353, 34.243939627582975 ] } },
{ "type": "Feature", "properties": { "NAME": "Walton" }, "geometry": { "type": "Point", "coordinates": [ -83.733850642855202, 33.781563599103301 ] } },
{ "type": "Feature", "properties": { "NAME": "Barrow" }, "geometry": { "type": "Point", "coordinates": [ -83.712766623533994, 33.993202408222729 ] } },
{ "type": "Feature", "properties": { "NAME": "Paulding" }, "geometry": { "type": "Point", "coordinates": [ -84.867292825618279, 33.920552010949613 ] } }
]
}
