{
"type": "FeatureCollection",
"name": "aging",
"crs": { "type": "name", "properties": { "name": "urn:ogc:def:crs:OGC:1.3:CRS84" } },
"features": [
{ "type": "Feature", "properties": { "OBJECTID": 908, "GEOID": "AAA01", "ShortLabel": "Atlanta Regional Commission" }, "geometry": { "type": "Polygon", "coordinates": [ [ [ -84.257612987244059, 34.380983043084754 ], [ -84.392111400130176, 34.380704346118073 ], [ -84.392208475852215, 34.373318876500889 ], [ -84.400799677252735, 34.373272427006441 ], [ -84.400751139391716, 34.38051854814028 ], [ -84.42453469129147, 34.380611447129176 ], [ -84.42453469129147, 34.38799691674636 ], [ -84.442153934841684, 34.388182714724145 ], [ -84.442348086285762, 34.380379199656936 ], [ -84.58262250463325, 34.381493987523683 ], [ -84.582816656077327, 34.412197103353598 ], [ -84.653245092417194, 34.412615148803631 ], [ -84.654021698193503, 34.355203573666294 ], [ -84.644314125989524, 34.355157124171846 ], [ -84.644702428877693, 34.346842664665708 ], [ -84.654021698193503, 34.346935563654604 ], [ -84.659215249322642, 34.077992990802514 ], [ -84.737846584174861, 34.07938647563595 ], [ -84.739642485032604, 33.947609259887869 ], [ -84.723236688007873, 33.947377012415629 ], [ -84.724110369506235, 33.788612640393453 ], [ -84.832689564607733, 33.776024827398125 ], [ -84.901710402978011, 33.78071622633734 ], [ -84.901758940839031, 33.730643671322738 ], [ -84.910981134432816, 33.729203736994862 ], [ -84.901419175811895, 33.71879905023858 ], [ -84.905787583303692, 33.573365683122887 ], [ -84.808954550568998, 33.57410887503405 ], [ -84.832592488885695, 33.547075269265491 ], [ -84.815070321057505, 33.521202900858135 ], [ -84.850697111046102, 33.51144850702412 ], [ -84.62771417752073, 33.511030461574094 ], [ -84.609561017499288, 33.502530204090164 ], [ -84.625578511635851, 33.47716878012173 ], [ -84.627131723188484, 33.460400512626116 ], [ -84.613929424991085, 33.402942487994331 ], [ -84.592766917586403, 33.379531942792703 ], [ -84.586068692765664, 33.357886478380081 ], [ -84.576992112754937, 33.358583220796795 ], [ -84.560440702147162, 33.340560816951097 ], [ -84.534472946501523, 33.335637170539641 ], [ -84.518261300920869, 33.318357958605098 ], [ -84.51748469514456, 33.293182332614457 ], [ -84.512533833320532, 33.280826767091376 ], [ -84.504476548391224, 33.28105901456361 ], [ -84.497535634265375, 33.257416221889741 ], [ -84.432931741247899, 33.256487232000786 ], [ -84.419098450857234, 33.293553928570041 ], [ -84.408614272876946, 33.294064873008963 ], [ -84.402741191693536, 33.305444999148648 ], [ -84.397062261954204, 33.301589691109484 ], [ -84.393276308794654, 33.316871574782773 ], [ -84.384102653061888, 33.319472746471845 ], [ -84.388082757665529, 33.352498337024151 ], [ -84.247420036429887, 33.352637685507489 ], [ -84.247274422846829, 33.335822968517434 ], [ -84.150587003695193, 33.335637170539641 ], [ -84.150926768722343, 33.312969817249169 ], [ -84.145005149677914, 33.316546428321644 ], [ -84.124182407300381, 33.300103307287159 ], [ -84.085691883511601, 33.297780832564776 ], [ -84.073363266812549, 33.301821938581725 ], [ -84.073023501785414, 33.317614766693936 ], [ -84.063558618886532, 33.317614766693936 ], [ -84.061277339418595, 33.309579004154486 ], [ -84.053705433099495, 33.31775411517728 ], [ -84.053656895238475, 33.32955228676699 ], [ -84.032979766444001, 33.342790392684584 ], [ -84.032688539277885, 33.361648887430341 ], [ -84.021330679799235, 33.35686458950223 ], [ -84.007594465130595, 33.368337614630811 ], [ -83.964395768822897, 33.375165690314617 ], [ -83.965997518236549, 33.385152331620873 ], [ -83.973229659528513, 33.385198781115321 ], [ -83.973132583806475, 33.407540987944657 ], [ -83.96313378443638, 33.407587437439105 ], [ -83.96313378443638, 33.419199811051023 ], [ -83.954057204425652, 33.425238245329219 ], [ -83.943524488584345, 33.425284694823667 ], [ -83.943524488584345, 33.441774265352599 ], [ -83.923915192732309, 33.444189639063879 ], [ -83.946388222384513, 33.482696269961004 ], [ -83.946388222384513, 33.482556921477659 ], [ -83.946388222384513, 33.4827891689499 ], [ -83.946339684523494, 33.4827891689499 ], [ -83.946388222384513, 33.4827891689499 ], [ -83.974200416748914, 33.483532360861062 ], [ -84.01579736364296, 33.498071052623189 ], [ -84.028077442480992, 33.491521673906064 ], [ -84.037251098213758, 33.495841476889701 ], [ -84.030018956921793, 33.500114830378884 ], [ -84.043027103675115, 33.509776325224003 ], [ -84.042930027953076, 33.519902315013603 ], [ -84.050210707106061, 33.510798214101854 ], [ -84.055210106791108, 33.5189268756302 ], [ -84.010700888235874, 33.563332592322183 ], [ -84.010652350374855, 33.554925233827156 ], [ -84.003274595499832, 33.554878784332708 ], [ -84.003371671221871, 33.563518390299976 ], [ -84.010458198930777, 33.563564839794424 ], [ -83.931487099051409, 33.650936338850514 ], [ -83.918139187270938, 33.689350070758749 ], [ -83.925516942145961, 33.706582833198837 ], [ -83.91323686330793, 33.712574817982592 ], [ -83.914838612721582, 33.744206923701462 ], [ -83.982209163817203, 33.786150817187725 ], [ -83.799124352050171, 33.929865553008852 ], [ -83.81368571035614, 33.954483785066124 ], [ -83.831838870377567, 33.966142608172497 ], [ -83.838245868032203, 33.983607618084825 ], [ -83.86911594764085, 34.004324092608492 ], [ -83.817665814959767, 34.127508151883745 ], [ -83.868048114698411, 34.098291419876155 ], [ -84.062830550971242, 34.167872762558787 ], [ -84.085886034955678, 34.148224626407412 ], [ -84.110349116909703, 34.097408879481648 ], [ -84.118018098950856, 34.06596257174057 ], [ -84.09845734095984, 34.050587789078385 ], [ -84.143597551708339, 34.054954041556464 ], [ -84.179224341696937, 34.069678531296383 ], [ -84.185631339351559, 34.08259149075284 ], [ -84.213783298743095, 34.099173960270662 ], [ -84.254118261250625, 34.10428340465991 ], [ -84.257612987244059, 34.380983043084754 ] ] ] } },
{ "type": "Feature", "properties": { "OBJECTID": 909, "GEOID": "AAA03", "ShortLabel": "Coastal Georgia" }, "geometry": { "type": "Polygon", "coordinates": [ [ [ -81.38921955241257, 32.595418027021353 ], [ -81.538570550770771, 32.509068416843114 ], [ -81.547986895808634, 32.489280932208402 ], [ -81.578468672529127, 32.512459229937789 ], [ -81.598854574157485, 32.507349785548548 ], [ -81.61642527984668, 32.515710694549128 ], [ -81.617444574928101, 32.525047042933117 ], [ -81.639335150248073, 32.53252541153919 ], [ -81.64812050309267, 32.527462416644397 ], [ -81.656517553049113, 32.539910881156374 ], [ -81.689668912125697, 32.546274461895706 ], [ -81.708161837174274, 32.565969047541522 ], [ -81.72976118532813, 32.573958360586523 ], [ -81.733304449182583, 32.585756532176234 ], [ -81.754224267282154, 32.602013855232926 ], [ -81.77378502527317, 32.607030400633278 ], [ -81.799073250864538, 32.627189481223567 ], [ -81.802034060386745, 32.643214556808019 ], [ -81.827079596673002, 32.652643804180904 ], [ -82.001233442012378, 32.606937501644381 ], [ -82.030259082902276, 32.538796093289626 ], [ -81.970994354596982, 32.5132488713434 ], [ -81.979828245302599, 32.501357800764794 ], [ -81.974149315563281, 32.470004392012612 ], [ -81.940997956486697, 32.43688590247141 ], [ -81.93667808685592, 32.422811705653764 ], [ -81.918670540417537, 32.415426236036581 ], [ -81.956918374901221, 32.286250191977572 ], [ -81.969052840156195, 32.268738732570796 ], [ -81.892751322632918, 32.274777166848999 ], [ -81.856590616173108, 32.257265707442222 ], [ -81.842029257867139, 32.241054833879979 ], [ -81.816304191526598, 32.237478222807503 ], [ -81.803732885522436, 32.219641616939597 ], [ -81.803393120495301, 32.199064490899275 ], [ -81.780920090843097, 32.175514597214296 ], [ -81.777279751266605, 32.131944971422371 ], [ -81.754078653699096, 32.111739441337626 ], [ -81.756796773916207, 32.104772017170475 ], [ -81.727140140833058, 32.098965830364513 ], [ -81.718646015154576, 32.089350785013842 ], [ -81.761747635740235, 32.047917835966508 ], [ -81.824410014316911, 32.01489224541421 ], [ -81.862803462383653, 31.973134149905739 ], [ -81.876151374164124, 31.96830340248318 ], [ -81.889644899527653, 31.948980412792945 ], [ -81.8819759174865, 31.918230847468578 ], [ -81.894984064239836, 31.902856064806393 ], [ -81.892557171188841, 31.895052549739184 ], [ -81.912457694206992, 31.886970337705286 ], [ -81.922310879994029, 31.851482923947255 ], [ -81.945026598951344, 31.835690095835044 ], [ -81.955122474043478, 31.809864176922133 ], [ -81.981624146160343, 31.799877535615881 ], [ -81.974392004868378, 31.787568419587245 ], [ -81.952501429548406, 31.788311611498408 ], [ -81.943716076703808, 31.759698722918635 ], [ -81.911584012708644, 31.753706738134884 ], [ -81.906681688745635, 31.725837041466271 ], [ -81.875957222720032, 31.71269183453758 ], [ -81.866929180570338, 31.69076767315827 ], [ -81.847562574023399, 31.677250870273994 ], [ -81.851397065043969, 31.668193218856697 ], [ -81.828924035391765, 31.663966314861959 ], [ -81.830962625554605, 31.657324037155938 ], [ -81.821012364045515, 31.651053355405502 ], [ -81.811984321895821, 31.653886774566811 ], [ -81.813634609170492, 31.664477259300881 ], [ -81.787472702080777, 31.643156941349396 ], [ -81.789559830104636, 31.6320555121764 ], [ -81.765630664621824, 31.62522743649259 ], [ -81.769610769225451, 31.614822749736309 ], [ -81.759563431994337, 31.620489588058927 ], [ -81.74417693005104, 31.612268027541685 ], [ -81.747234815295286, 31.601491744829822 ], [ -81.737527243091307, 31.608830764952558 ], [ -81.723208574090435, 31.591644452006914 ], [ -81.701754839519651, 31.584909275312 ], [ -81.696561288390527, 31.553462967570919 ], [ -81.681902854362519, 31.551558538298565 ], [ -81.681902854362519, 31.54180414446455 ], [ -81.672437971463637, 31.548028376720541 ], [ -81.664137997229233, 31.54180414446455 ], [ -81.667001731029401, 31.532374897091671 ], [ -81.652246221279356, 31.528566038546959 ], [ -81.657051469520326, 31.50789601351774 ], [ -81.612299561659995, 31.470179024026223 ], [ -81.664866065144537, 31.399715140949088 ], [ -81.692095805176692, 31.400411883365802 ], [ -81.704764186902878, 31.374911110914024 ], [ -81.700250165828038, 31.360372419151897 ], [ -81.725004474948179, 31.327114581127358 ], [ -81.731702699768917, 31.330040899277563 ], [ -81.733838365653796, 31.29678306125302 ], [ -81.749661708346281, 31.275230495829295 ], [ -81.766892649008341, 31.201468698646373 ], [ -81.782473302395729, 31.17206616866099 ], [ -81.779609568595561, 31.164912946516047 ], [ -81.766310194676109, 31.169604345455262 ], [ -81.790676200908095, 31.146054451770286 ], [ -81.801451606054499, 31.151210345653979 ], [ -81.819070849604728, 31.136532305408512 ], [ -81.840670197758584, 31.097654078555802 ], [ -81.915903882339407, 31.095285154338971 ], [ -81.92735881754011, 31.079306528248967 ], [ -81.926290984597671, 31.060912528447684 ], [ -81.936920776161017, 31.060494482997655 ], [ -81.935852943218578, 31.047627973035645 ], [ -81.904691636443815, 31.037176836784916 ], [ -81.911438399125586, 31.011025771410871 ], [ -81.907361218799906, 30.995836786726478 ], [ -81.914544822230852, 30.996069034198715 ], [ -81.917602707475112, 30.985850145420226 ], [ -81.913476989288412, 30.974562918269438 ], [ -81.891877641134556, 30.960070676001763 ], [ -81.915467041590233, 30.914178575487451 ], [ -81.902167667670781, 30.91501466638751 ], [ -81.906244847996447, 30.908790434131518 ], [ -81.896294586487372, 30.904842227103465 ], [ -81.892120330439667, 30.909998120987158 ], [ -81.904837250026873, 30.828339909748131 ], [ -81.891974716856609, 30.824902647159004 ], [ -81.882655447540785, 30.800284415101732 ], [ -81.86853092998399, 30.792898945484549 ], [ -81.806596619322619, 30.789972627334347 ], [ -81.797180274284756, 30.78147236985042 ], [ -81.79305455609807, 30.787278556656378 ], [ -81.782861605283884, 30.761591986226811 ], [ -81.771552283666253, 30.764146708421432 ], [ -81.77072714002891, 30.776827420405652 ], [ -81.761699097879216, 30.775712632538905 ], [ -81.719713848097015, 30.744637920753405 ], [ -81.693891706034421, 30.748493228792565 ], [ -81.672486509324656, 30.738785284452998 ], [ -81.670836222049985, 30.747424890420266 ], [ -81.683116300888017, 30.748493228792565 ], [ -81.662487709954561, 30.754252966104076 ], [ -81.663021626425774, 30.743476683392213 ], [ -81.651809380530182, 30.742222547042125 ], [ -81.652246221279356, 30.72893799163009 ], [ -81.636374340725851, 30.733954537030439 ], [ -81.62987026734919, 30.728241249213372 ], [ -81.623997186165781, 30.736230562258374 ], [ -81.622977891084361, 30.723456951285261 ], [ -81.609872668609, 30.715932133184737 ], [ -81.601815383679693, 30.729588284552356 ], [ -81.59618499180138, 30.718672653357149 ], [ -81.574197340759369, 30.72252796139631 ], [ -81.561431883311144, 30.711658779695551 ], [ -81.548375198696789, 30.718301057401568 ], [ -81.538376399326694, 30.708639562556453 ], [ -81.532309166699207, 30.724107244207531 ], [ -81.488479478198244, 30.726336819941018 ], [ -81.474112271336367, 30.713934804923486 ], [ -81.451250938795994, 30.709475653456511 ], [ -81.347040151186292, 30.712448421101161 ], [ -81.359126078580232, 30.744312774292272 ], [ -81.400480336169181, 30.766422733649371 ], [ -81.362669342434685, 30.845944268143803 ], [ -81.345195712467529, 30.931504236916435 ], [ -81.317529131686186, 30.94850475188429 ], [ -81.30481221209898, 30.970800509219178 ], [ -81.310733831143409, 30.997323170548803 ], [ -81.344516182413244, 31.018132544061366 ], [ -81.353398610979895, 31.037130387290468 ], [ -81.345292788189568, 31.059379695130911 ], [ -81.313646102804597, 31.067879952614835 ], [ -81.290202315931992, 31.093520073549957 ], [ -81.286513438494481, 31.116698371279352 ], [ -81.296415162142537, 31.151907088070693 ], [ -81.247925838983662, 31.16082539100465 ], [ -81.234335237898094, 31.170254638377529 ], [ -81.187690353457981, 31.246246011293941 ], [ -81.186137141905348, 31.326789434666225 ], [ -81.171090404989172, 31.370312610963701 ], [ -81.190748238702241, 31.399900938926876 ], [ -81.166964686802487, 31.423450832611852 ], [ -81.143860664957018, 31.471526059365207 ], [ -81.114980637650191, 31.487040190510733 ], [ -81.087071367563752, 31.529169881974781 ], [ -81.065811784437031, 31.62522743649259 ], [ -81.066636928074374, 31.657324037155938 ], [ -81.049794290300468, 31.688630996413679 ], [ -81.056638128704279, 31.714874960776619 ], [ -81.013827735284735, 31.72867046062758 ], [ -80.970726114699062, 31.798344702299108 ], [ -80.928595251333803, 31.816970949572628 ], [ -80.855351619054787, 31.910798928356947 ], [ -80.796281042193584, 31.953486013754368 ], [ -80.780700388806196, 32.011362083836183 ], [ -80.751432058611201, 32.033472043193278 ], [ -80.918013997631462, 32.037606048199123 ], [ -80.954465931257403, 32.068634310490175 ], [ -80.983200344981185, 32.079642840674275 ], [ -81.002324262223013, 32.10008061823126 ], [ -81.032611887499428, 32.085495476974685 ], [ -81.050328206771695, 32.085309678996893 ], [ -81.091585388638592, 32.110903350437567 ], [ -81.113330350375506, 32.113225825159951 ], [ -81.119980037335239, 32.134267446144754 ], [ -81.112262517433066, 32.150803466168128 ], [ -81.129736147400237, 32.165853102369176 ], [ -81.121144945999717, 32.174910753786477 ], [ -81.111146146629608, 32.172727627547438 ], [ -81.120465415945432, 32.178719612331186 ], [ -81.121775938192968, 32.191818369765436 ], [ -81.11405841829081, 32.19572012729904 ], [ -81.121873013915007, 32.195534329321248 ], [ -81.138909803132989, 32.219780965422942 ], [ -81.152063563469383, 32.222056990650877 ], [ -81.143617975651921, 32.229256662290268 ], [ -81.156626122405257, 32.243284409613466 ], [ -81.145802179397819, 32.25090212670289 ], [ -81.146336095869032, 32.263350591214866 ], [ -81.136919750831169, 32.266137560881724 ], [ -81.142016226238269, 32.271711500215446 ], [ -81.123426225467654, 32.275195212299025 ], [ -81.127163640766184, 32.282255535455072 ], [ -81.11959173444707, 32.286900484899839 ], [ -81.122746695413369, 32.30719891397348 ], [ -81.13303672194958, 32.30854594931246 ], [ -81.130658366759604, 32.325639363269211 ], [ -81.138036121634627, 32.328240534958283 ], [ -81.12852270087474, 32.338366524747876 ], [ -81.143812127095998, 32.351558181171015 ], [ -81.15987815909358, 32.340363853009123 ], [ -81.15507291085261, 32.350443393304275 ], [ -81.173857063067317, 32.362752509332907 ], [ -81.168032519744926, 32.368976741588895 ], [ -81.181865810135591, 32.379334978850729 ], [ -81.178274008420118, 32.392991130218348 ], [ -81.205455210591268, 32.423415549081582 ], [ -81.208416020113475, 32.437257498426995 ], [ -81.199290902241742, 32.442924336749613 ], [ -81.205794975618403, 32.450495604344582 ], [ -81.197931842133173, 32.448498276083335 ], [ -81.187107899125749, 32.464105306217753 ], [ -81.233121791372596, 32.498059886659007 ], [ -81.238849258972948, 32.508418123920848 ], [ -81.233607169982804, 32.518172517754856 ], [ -81.252051557170361, 32.518126068260408 ], [ -81.279669600090671, 32.536334270083898 ], [ -81.27491288971072, 32.544788078073381 ], [ -81.281271349504337, 32.556493350674195 ], [ -81.289765475182818, 32.551709052746084 ], [ -81.290153778070973, 32.562299537480158 ], [ -81.296172472837441, 32.553334785051753 ], [ -81.297677146529054, 32.562949830402424 ], [ -81.32859576399872, 32.561091850624514 ], [ -81.355922579752928, 32.571589436369692 ], [ -81.357767018471677, 32.582133471609318 ], [ -81.367086287787501, 32.577116926208966 ], [ -81.369852945865631, 32.591191123026618 ], [ -81.38921955241257, 32.595418027021353 ] ] ] } },
{ "type": "Feature", "properties": { "OBJECTID": 910, "GEOID": "AAA02", "ShortLabel": "CSRA" }, "geometry": { "type": "Polygon", "coordinates": [ [ [ -82.564515319148214, 33.955737921416215 ], [ -82.609704067757733, 33.981517390834682 ], [ -82.62742038703, 33.981796087801364 ], [ -82.639360700840882, 33.97273843638407 ], [ -82.641108063837606, 33.98244638072363 ], [ -82.656203338614787, 33.991411133152035 ], [ -82.779489505605312, 33.971112704078401 ], [ -82.793759636745165, 33.948677598260169 ], [ -82.848655957558663, 33.939945093304004 ], [ -82.855548333823478, 33.927496628792021 ], [ -82.883894444659092, 33.912354093602076 ], [ -82.922433506308892, 33.856103755825934 ], [ -82.942479642910101, 33.848950533680991 ], [ -82.960826954375619, 33.811744488628392 ], [ -82.976698834929124, 33.80185074631104 ], [ -82.987280088631465, 33.780669776842899 ], [ -82.949032254147795, 33.733337742000707 ], [ -82.988542073017982, 33.706675732187733 ], [ -82.995580062865869, 33.693576974753491 ], [ -82.995628600726889, 33.693576974753491 ], [ -82.995580062865869, 33.693576974753491 ], [ -82.963690688175802, 33.676808707257877 ], [ -82.950731079283486, 33.660969429651217 ], [ -82.970534526579598, 33.641739338949876 ], [ -82.980096485200519, 33.614705733181324 ], [ -82.987716929380639, 33.628965727976762 ], [ -83.001598757632337, 33.620233223020598 ], [ -82.989901133126537, 33.603279157547192 ], [ -83.014024450053427, 33.580426006278934 ], [ -82.986018104244948, 33.520366809958077 ], [ -82.985581263495774, 33.489849492105947 ], [ -83.164200592048971, 33.355053059218768 ], [ -83.144105917586728, 33.339864074534376 ], [ -83.150512915241364, 33.321934569677573 ], [ -83.146484272776704, 33.309068059715564 ], [ -83.204001638085288, 33.279108135796811 ], [ -83.229095712232564, 33.276878560063324 ], [ -83.229484015120718, 33.256301434022994 ], [ -83.239045973741639, 33.262618565267879 ], [ -83.25346171846455, 33.259274201667651 ], [ -83.252636574827207, 33.234284373654795 ], [ -83.275061066618406, 33.189460611512779 ], [ -83.097509571007635, 33.151418475560128 ], [ -83.095470980844809, 33.140967339309398 ], [ -83.11056625562199, 33.127450536425123 ], [ -83.118817691995375, 33.087085925750088 ], [ -83.102848735719832, 33.051366264519814 ], [ -83.052223746676077, 33.080675895516308 ], [ -83.044312075329842, 33.06400052700959 ], [ -83.055233094059318, 33.037152719218824 ], [ -83.067707324341427, 33.027444774879257 ], [ -83.048826096404696, 32.986383421787508 ], [ -83.06926053589406, 32.972076977497622 ], [ -83.071347663917919, 32.933059402161568 ], [ -83.061106175242728, 32.934592235478341 ], [ -83.056883381333989, 32.925999079005521 ], [ -83.062902076100457, 32.919681947760637 ], [ -83.046399203353701, 32.905375503470751 ], [ -83.048923172126734, 32.882801049169174 ], [ -83.037808001953181, 32.880478574446791 ], [ -83.027032596806762, 32.856139039356201 ], [ -82.98897891376717, 32.852655327272629 ], [ -82.970583064440618, 32.835143867865852 ], [ -82.971845048827134, 32.823066999309454 ], [ -82.954274343137939, 32.801560883380176 ], [ -82.960147424321349, 32.759988585849499 ], [ -82.946993663984955, 32.75938474242168 ], [ -82.802447913867724, 32.809782443897411 ], [ -82.775024022391477, 32.79450056022413 ], [ -82.768374335431758, 32.76909268676124 ], [ -82.680763496290851, 32.796776585452065 ], [ -82.666978743761206, 32.782888186612205 ], [ -82.560535214544586, 32.820047782170356 ], [ -82.521073933535419, 32.822370256892739 ], [ -82.473264140430814, 32.777546494750723 ], [ -82.429822754818019, 32.761474969671823 ], [ -82.398321683016107, 32.777453595761827 ], [ -82.409194163884564, 32.784467469423426 ], [ -82.418998811810582, 32.811175928730847 ], [ -82.362840506610567, 32.815913777164511 ], [ -82.326242959401569, 32.841321650627393 ], [ -82.308429564407263, 32.828269342687591 ], [ -82.256057212366812, 32.82394953970396 ], [ -82.214169038306636, 32.803697560124768 ], [ -82.147138252238165, 32.814938337781108 ], [ -82.082874124247837, 32.663327187903867 ], [ -82.001233442012378, 32.606937501644381 ], [ -81.827079596673002, 32.652643804180904 ], [ -81.802034060386745, 32.643214556808019 ], [ -81.799073250864538, 32.627189481223567 ], [ -81.77378502527317, 32.607030400633278 ], [ -81.754224267282154, 32.602013855232926 ], [ -81.733304449182583, 32.585756532176234 ], [ -81.72976118532813, 32.573958360586523 ], [ -81.708161837174274, 32.565969047541522 ], [ -81.689668912125697, 32.546274461895706 ], [ -81.656517553049113, 32.539910881156374 ], [ -81.64812050309267, 32.527462416644397 ], [ -81.639335150248073, 32.53252541153919 ], [ -81.617444574928101, 32.525047042933117 ], [ -81.61642527984668, 32.515710694549128 ], [ -81.598854574157485, 32.507349785548548 ], [ -81.578468672529127, 32.512459229937789 ], [ -81.547986895808634, 32.489280932208402 ], [ -81.538570550770771, 32.509068416843114 ], [ -81.38921955241257, 32.595418027021353 ], [ -81.418682034051642, 32.629419056957062 ], [ -81.414750467309034, 32.637454819496512 ], [ -81.407275636711972, 32.631741531679445 ], [ -81.402761615637118, 32.637036774046479 ], [ -81.412566263563136, 32.641542375007901 ], [ -81.393054043433139, 32.651529016314157 ], [ -81.406353417352591, 32.658171294020178 ], [ -81.397179761619839, 32.661376309137069 ], [ -81.409022999708682, 32.696538576433966 ], [ -81.412420649980078, 32.692079424966984 ], [ -81.427515924757259, 32.701880268295447 ], [ -81.415138770197188, 32.713678439885157 ], [ -81.420332321326327, 32.721063909502341 ], [ -81.409993756929083, 32.721853550907952 ], [ -81.418536420468584, 32.732583384125363 ], [ -81.404945819383016, 32.745542793076268 ], [ -81.419701329133062, 32.749165853643191 ], [ -81.408149318210334, 32.755808131349205 ], [ -81.41402239939373, 32.755436535393628 ], [ -81.412080884952942, 32.763890343383103 ], [ -81.431932870110074, 32.768906888783455 ], [ -81.414459240142918, 32.778150338178541 ], [ -81.43125334005579, 32.784142322962296 ], [ -81.422807752238342, 32.783399131051134 ], [ -81.427661538340317, 32.787626035045868 ], [ -81.419701329133062, 32.793246423874038 ], [ -81.428292530533582, 32.800817691469014 ], [ -81.418002503997371, 32.818189802392446 ], [ -81.427079084008085, 32.816889216547914 ], [ -81.421934070739979, 32.821487716498233 ], [ -81.430185507113364, 32.827758398248669 ], [ -81.421594305712844, 32.835190317360301 ], [ -81.440378457927537, 32.8411358526496 ], [ -81.444892479002391, 32.850983145472512 ], [ -81.460715821694876, 32.846059499061056 ], [ -81.452901226070665, 32.872953756346263 ], [ -81.479451436048549, 32.881082417874609 ], [ -81.464064934105238, 32.897804235875775 ], [ -81.480810496157105, 32.898640326775833 ], [ -81.48318885134708, 32.921818624505228 ], [ -81.501050784202405, 32.933523897106042 ], [ -81.499449034788739, 32.944996922234623 ], [ -81.51003028849108, 32.957352487757703 ], [ -81.510175902074138, 32.969011310864076 ], [ -81.499837337676908, 32.963808967485932 ], [ -81.491197598415368, 32.997809997421641 ], [ -81.500613943453217, 33.002454946866408 ], [ -81.491974204191678, 33.009097224572422 ], [ -81.504060131585632, 33.016250446717365 ], [ -81.510709818545365, 33.010304911428065 ], [ -81.510272977796177, 33.021220542623269 ], [ -81.519058330640775, 33.023217870884523 ], [ -81.511243735016578, 33.027769921340393 ], [ -81.529105667871903, 33.040822229280195 ], [ -81.538813240075882, 33.039196496974526 ], [ -81.545462927035601, 33.048997340302982 ], [ -81.561965799782357, 33.04583877468054 ], [ -81.564295617111313, 33.060795511892699 ], [ -81.572886818511833, 33.054199683681126 ], [ -81.57720668814261, 33.065951405776389 ], [ -81.602203686567847, 33.073476223876916 ], [ -81.596524756828529, 33.079886254110697 ], [ -81.601330005069499, 33.08703947625564 ], [ -81.612056872354884, 33.080025602594034 ], [ -81.61166856946673, 33.094285597389479 ], [ -81.642344497631299, 33.093170809522732 ], [ -81.70461857331982, 33.116442006241023 ], [ -81.752137139258295, 33.148538606904367 ], [ -81.772425965164615, 33.180449409589926 ], [ -81.765436513177747, 33.178359182339783 ], [ -81.756845311777226, 33.197960868996702 ], [ -81.768931239171181, 33.217469656664733 ], [ -81.779755182178619, 33.221371414198337 ], [ -81.777522440571701, 33.211338323397641 ], [ -81.784560430419589, 33.20813330828075 ], [ -81.805237559214063, 33.211431222386537 ], [ -81.809654504566865, 33.222672000042877 ], [ -81.852950276596616, 33.248730166428025 ], [ -81.839650902677164, 33.255233095650702 ], [ -81.846931581830148, 33.266613221790379 ], [ -81.834554427270078, 33.258345211778696 ], [ -81.828341581059533, 33.263036610717911 ], [ -81.835962025239652, 33.263129509706808 ], [ -81.832661450690296, 33.275856671185473 ], [ -81.863240303132827, 33.288862529630819 ], [ -81.860036804305508, 33.299127867903763 ], [ -81.848727482687877, 33.296758943686932 ], [ -81.847319884718303, 33.306838483982077 ], [ -81.855183018203519, 33.310415095054545 ], [ -81.863919833187111, 33.302054186053965 ], [ -81.868628005706029, 33.313945256632572 ], [ -81.880762470961002, 33.302239984031758 ], [ -81.881636152459365, 33.315849685904929 ], [ -81.892557171188841, 33.315338741466 ], [ -81.889159520917445, 33.321098478777515 ], [ -81.899061244565502, 33.323328054511002 ], [ -81.901391061894458, 33.335776519022986 ], [ -81.906147772274409, 33.321609423216437 ], [ -81.913719678593509, 33.320030140405215 ], [ -81.908137824576229, 33.32713691305571 ], [ -81.919155919027745, 33.334429483683998 ], [ -81.90915711965765, 33.346645700723741 ], [ -81.918816154000609, 33.34023567048996 ], [ -81.939735972100181, 33.344927069429176 ], [ -81.934833648137172, 33.356028498602171 ], [ -81.946385659059899, 33.370567190364298 ], [ -81.924834848767063, 33.374143801436773 ], [ -81.945172212534402, 33.407540987944657 ], [ -81.909691036128862, 33.412000139411631 ], [ -81.932455292947196, 33.425702740273699 ], [ -81.913137224261277, 33.438337002763468 ], [ -81.92633952245869, 33.46295523482074 ], [ -81.985944015791119, 33.48655157800016 ], [ -82.001330517734417, 33.520134562485836 ], [ -82.046325114899858, 33.563843536761112 ], [ -82.094134908004449, 33.582748481001317 ], [ -82.107822584812055, 33.596265283885593 ], [ -82.136314309230741, 33.59152743545193 ], [ -82.186162692498158, 33.620883515942865 ], [ -82.196792484061518, 33.631102404721354 ], [ -82.199898907166798, 33.66171262156238 ], [ -82.234652015657034, 33.700405050437297 ], [ -82.247466010966292, 33.752614282196497 ], [ -82.29828515145411, 33.783503196004204 ], [ -82.300226665894911, 33.800643059455396 ], [ -82.324495596404859, 33.82005894813453 ], [ -82.403903537033401, 33.865486553704365 ], [ -82.429191762624754, 33.86585814965995 ], [ -82.492921974143869, 33.909752921913011 ], [ -82.512968110745092, 33.936972325659347 ], [ -82.55441944405608, 33.943800401343161 ], [ -82.564515319148214, 33.955737921416215 ] ] ] } },
{ "type": "Feature", "properties": { "OBJECTID": 911, "GEOID": "AAA04", "ShortLabel": "Heart of Georgia" }, "geometry": { "type": "Polygon", "coordinates": [ [ [ -82.001233442012378, 32.606937501644381 ], [ -82.082874124247837, 32.663327187903867 ], [ -82.147138252238165, 32.814938337781108 ], [ -82.214169038306636, 32.803697560124768 ], [ -82.256057212366812, 32.82394953970396 ], [ -82.308429564407263, 32.828269342687591 ], [ -82.326242959401569, 32.841321650627393 ], [ -82.362840506610567, 32.815913777164511 ], [ -82.418998811810582, 32.811175928730847 ], [ -82.409194163884564, 32.784467469423426 ], [ -82.398321683016107, 32.777453595761827 ], [ -82.429822754818019, 32.761474969671823 ], [ -82.473264140430814, 32.777546494750723 ], [ -82.521073933535419, 32.822370256892739 ], [ -82.560535214544586, 32.820047782170356 ], [ -82.666978743761206, 32.782888186612205 ], [ -82.680763496290851, 32.796776585452065 ], [ -82.768374335431758, 32.76909268676124 ], [ -82.775024022391477, 32.79450056022413 ], [ -82.802447913867724, 32.809782443897411 ], [ -82.946993663984955, 32.75938474242168 ], [ -82.957089539077089, 32.708290298529228 ], [ -83.399317990829317, 32.500475260370294 ], [ -83.412034910416537, 32.502100992675956 ], [ -83.408831411589219, 32.495737411936624 ], [ -83.49794692442174, 32.452214235639147 ], [ -83.48246334675639, 32.425134180376148 ], [ -83.484162171892095, 32.405764741191462 ], [ -83.498044000143778, 32.401723635174513 ], [ -83.346508798039679, 32.272501141621056 ], [ -83.373932689515925, 32.249740889341695 ], [ -83.291127098615988, 32.178812511320082 ], [ -83.324812374163784, 32.150385420718102 ], [ -83.304669161840536, 32.133199107772455 ], [ -83.30894049361028, 32.125720739166383 ], [ -83.348304698897422, 32.102867587898118 ], [ -83.359128641904846, 32.106119052509456 ], [ -83.350683054087398, 32.112621981732133 ], [ -83.361118694206667, 32.124095006860713 ], [ -83.397133787083433, 32.124095006860713 ], [ -83.396988173500375, 32.132595264344637 ], [ -83.416451855769338, 32.133059759289111 ], [ -83.416548931491377, 32.125163345233005 ], [ -83.43557577301118, 32.125442042199694 ], [ -83.435672848733219, 32.1172669311769 ], [ -83.541630999339645, 32.118149471571407 ], [ -83.541485385756587, 32.12609233512196 ], [ -83.550853192933417, 32.126185234110856 ], [ -83.551047344377508, 32.118149471571407 ], [ -83.608564709686078, 32.118428168538095 ], [ -83.61225358712359, 31.854084095636328 ], [ -83.213854823872325, 31.844654848263446 ], [ -83.182839130680605, 31.851993868386181 ], [ -83.151969051071958, 31.824867363628734 ], [ -83.134592496826841, 31.824124171717571 ], [ -83.132553906664, 31.815205868783615 ], [ -83.140853880898405, 31.817760590978239 ], [ -83.13085508152831, 31.810700267822192 ], [ -83.110614793483009, 31.809492580966552 ], [ -83.105906620964078, 31.819107626317219 ], [ -83.099256934004359, 31.808284894110912 ], [ -83.086685628000197, 31.812744045577887 ], [ -83.080375706067613, 31.800620727527043 ], [ -83.005773013680042, 31.774655460130788 ], [ -82.997861342333806, 31.781669333792387 ], [ -82.990386511736745, 31.776652788392038 ], [ -82.99067773890286, 31.787196823631664 ], [ -82.982474840390495, 31.783852460031429 ], [ -82.977475440705447, 31.793328156898756 ], [ -82.956458546883837, 31.783016369131371 ], [ -82.919375621064646, 31.784316954975907 ], [ -82.918938780315457, 31.778696566147737 ], [ -82.898795567992209, 31.79147017712085 ], [ -82.899669249490557, 31.783202167109163 ], [ -82.890544131618825, 31.780368747947854 ], [ -82.876516689784069, 31.787103924642768 ], [ -82.877196219838353, 31.780972591375672 ], [ -82.862829012976462, 31.783062818625819 ], [ -82.836375878720631, 31.816181308167018 ], [ -82.836618568025727, 31.671398233973587 ], [ -82.521413698562554, 31.672513021840331 ], [ -82.521413698562554, 31.710787405265222 ], [ -82.49588278366609, 31.710601607287433 ], [ -82.450888186500649, 31.661365143172887 ], [ -82.435744373862448, 31.660668400756173 ], [ -82.407543876609893, 31.639208734321343 ], [ -82.367597216990518, 31.630476229365179 ], [ -82.308866405156451, 31.588578785373368 ], [ -82.24076778614554, 31.555692543304406 ], [ -82.219071362269645, 31.518718745724051 ], [ -82.159709558242326, 31.473523387626457 ], [ -82.140245875973349, 31.469528731103956 ], [ -82.09787232330298, 31.48123400370477 ], [ -82.063604593422937, 31.466555963459303 ], [ -82.0527806504155, 31.4545719938918 ], [ -82.05753736079545, 31.409097938827518 ], [ -82.043898221848863, 31.394884393526528 ], [ -82.042636237462347, 31.374167919002861 ], [ -82.031521067288793, 31.366410853430096 ], [ -81.923233099353411, 31.345880176884222 ], [ -81.801063303166345, 31.36376323224658 ], [ -81.731702699768917, 31.330040899277563 ], [ -81.725004474948179, 31.327114581127358 ], [ -81.700250165828038, 31.360372419151897 ], [ -81.704764186902878, 31.374911110914024 ], [ -81.692095805176692, 31.400411883365802 ], [ -81.664866065144537, 31.399715140949088 ], [ -81.612299561659995, 31.470179024026223 ], [ -81.657051469520326, 31.50789601351774 ], [ -81.652246221279356, 31.528566038546959 ], [ -81.667001731029401, 31.532374897091671 ], [ -81.664137997229233, 31.54180414446455 ], [ -81.672437971463637, 31.548028376720541 ], [ -81.681902854362519, 31.54180414446455 ], [ -81.681902854362519, 31.551558538298565 ], [ -81.696561288390527, 31.553462967570919 ], [ -81.701754839519651, 31.584909275312 ], [ -81.723208574090435, 31.591644452006914 ], [ -81.737527243091307, 31.608830764952558 ], [ -81.747234815295286, 31.601491744829822 ], [ -81.74417693005104, 31.612268027541685 ], [ -81.759563431994337, 31.620489588058927 ], [ -81.769610769225451, 31.614822749736309 ], [ -81.765630664621824, 31.62522743649259 ], [ -81.789559830104636, 31.6320555121764 ], [ -81.787472702080777, 31.643156941349396 ], [ -81.813634609170492, 31.664477259300881 ], [ -81.811984321895821, 31.653886774566811 ], [ -81.821012364045515, 31.651053355405502 ], [ -81.830962625554605, 31.657324037155938 ], [ -81.828924035391765, 31.663966314861959 ], [ -81.851397065043969, 31.668193218856697 ], [ -81.847562574023399, 31.677250870273994 ], [ -81.866929180570338, 31.69076767315827 ], [ -81.875957222720032, 31.71269183453758 ], [ -81.906681688745635, 31.725837041466271 ], [ -81.911584012708644, 31.753706738134884 ], [ -81.943716076703808, 31.759698722918635 ], [ -81.952501429548406, 31.788311611498408 ], [ -81.974392004868378, 31.787568419587245 ], [ -81.981624146160343, 31.799877535615881 ], [ -81.955122474043478, 31.809864176922133 ], [ -81.945026598951344, 31.835690095835044 ], [ -81.922310879994029, 31.851482923947255 ], [ -81.912457694206992, 31.886970337705286 ], [ -81.892557171188841, 31.895052549739184 ], [ -81.894984064239836, 31.902856064806393 ], [ -81.8819759174865, 31.918230847468578 ], [ -81.889644899527653, 31.948980412792945 ], [ -81.876151374164124, 31.96830340248318 ], [ -81.862803462383653, 31.973134149905739 ], [ -81.824410014316911, 32.01489224541421 ], [ -81.761747635740235, 32.047917835966508 ], [ -81.718646015154576, 32.089350785013842 ], [ -81.727140140833058, 32.098965830364513 ], [ -81.756796773916207, 32.104772017170475 ], [ -81.754078653699096, 32.111739441337626 ], [ -81.777279751266605, 32.131944971422371 ], [ -81.780920090843097, 32.175514597214296 ], [ -81.803393120495301, 32.199064490899275 ], [ -81.803732885522436, 32.219641616939597 ], [ -81.816304191526598, 32.237478222807503 ], [ -81.842029257867139, 32.241054833879979 ], [ -81.856590616173108, 32.257265707442222 ], [ -81.892751322632918, 32.274777166848999 ], [ -81.969052840156195, 32.268738732570796 ], [ -81.956918374901221, 32.286250191977572 ], [ -81.918670540417537, 32.415426236036581 ], [ -81.93667808685592, 32.422811705653764 ], [ -81.940997956486697, 32.43688590247141 ], [ -81.974149315563281, 32.470004392012612 ], [ -81.979828245302599, 32.501357800764794 ], [ -81.970994354596982, 32.5132488713434 ], [ -82.030259082902276, 32.538796093289626 ], [ -82.001233442012378, 32.606937501644381 ] ] ] } },
{ "type": "Feature", "properties": { "OBJECTID": 912, "GEOID": "AAA05", "ShortLabel": "Legacy Link Georgia Mountains" }, "geometry": { "type": "Polygon", "coordinates": [ [ [ -82.773422272977825, 34.288873695595001 ], [ -82.794390628938416, 34.340293285948583 ], [ -82.834482902140849, 34.365236664466991 ], [ -82.858848908372835, 34.455209335212153 ], [ -82.887389170652526, 34.48098880463062 ], [ -82.936946326753841, 34.486562743964342 ], [ -82.955730478968533, 34.478898577380477 ], [ -82.964224604647015, 34.484565415703088 ], [ -82.991163117513054, 34.479827567269425 ], [ -82.995919827893005, 34.472209850180008 ], [ -83.034167662376689, 34.4834041783419 ], [ -83.054310874699937, 34.502820067021034 ], [ -83.072609648304436, 34.504120652865566 ], [ -83.087268082332443, 34.516197521421965 ], [ -83.078385653765807, 34.525394521322603 ], [ -83.102703122136774, 34.532408394984202 ], [ -83.122894872321041, 34.560138743169475 ], [ -83.139883123678004, 34.561810924969592 ], [ -83.143183698227361, 34.57342329858151 ], [ -83.158667275892697, 34.578997237915232 ], [ -83.154590095567031, 34.58819423781587 ], [ -83.170995892591748, 34.598087980133229 ], [ -83.159638033113097, 34.603290323511374 ], [ -83.232590438225998, 34.611604783017505 ], [ -83.254772240712086, 34.637337802941524 ], [ -83.293165688778828, 34.65429186841493 ], [ -83.304669161840536, 34.669573752088212 ], [ -83.340538641134231, 34.680721630755656 ], [ -83.340247413968115, 34.691637261950866 ], [ -83.353643863609605, 34.697815044712407 ], [ -83.346654411622737, 34.704225074946187 ], [ -83.353352636443489, 34.728703958520114 ], [ -83.318745141536297, 34.757641993561023 ], [ -83.324132844109513, 34.789274099279893 ], [ -83.300834670819967, 34.80437018497539 ], [ -83.305639919060937, 34.816539952520685 ], [ -83.295010127497576, 34.813288487909347 ], [ -83.289039970592128, 34.824668614049031 ], [ -83.270886810570687, 34.81858373027638 ], [ -83.267197933133176, 34.848497204700692 ], [ -83.248947697389696, 34.845152841100457 ], [ -83.253898559213724, 34.848775901667381 ], [ -83.248074015891348, 34.865590618657436 ], [ -83.234726104110877, 34.870746512541132 ], [ -83.24312315406732, 34.877388790247153 ], [ -83.220067670082869, 34.878039083169419 ], [ -83.214048975316402, 34.888583118409045 ], [ -83.205020933166693, 34.880315108397355 ], [ -83.203564797336099, 34.893460315326053 ], [ -83.197206337542497, 34.890580446670292 ], [ -83.168617537401786, 34.919379133227856 ], [ -83.157162602201083, 34.914966431255323 ], [ -83.15667722359089, 34.930898607850878 ], [ -83.141873175979825, 34.924488577617105 ], [ -83.127311817673856, 34.938655673423646 ], [ -83.111779702147487, 34.934986163362275 ], [ -83.127651582700992, 34.949850001585538 ], [ -83.125612992538152, 34.955098794458124 ], [ -83.114109519476443, 34.950175148046668 ], [ -83.120565054992085, 34.968429799364614 ], [ -83.098237638922939, 34.990818455688391 ], [ -83.108624741181188, 35.000665748511302 ], [ -83.620165258469825, 34.992119041532931 ], [ -83.619971107025748, 34.986591551693657 ], [ -84.129424496290525, 34.98756699107706 ], [ -84.172380503293127, 34.959325698452865 ], [ -84.17873896308673, 34.946830784446433 ], [ -84.160828492370399, 34.926903951328384 ], [ -84.133550214477211, 34.916499264572103 ], [ -84.107679534553611, 34.88765412852009 ], [ -84.113746767181098, 34.870374916585547 ], [ -84.14248118090488, 34.854071144034414 ], [ -84.147626194172986, 34.83786027047217 ], [ -84.141753112989576, 34.807342952620047 ], [ -84.123988255856304, 34.796055725469259 ], [ -84.093215251969681, 34.80139741733074 ], [ -84.093166714108662, 34.727774968631159 ], [ -84.103650892088964, 34.727821418125608 ], [ -84.188543611012747, 34.602686480083548 ], [ -84.196746509525113, 34.617921914262389 ], [ -84.223927711696248, 34.59701964176093 ], [ -84.254700715582871, 34.597484136705411 ], [ -84.255234632054083, 34.568313854192262 ], [ -84.2757661472655, 34.573748445042646 ], [ -84.292171944290217, 34.569010596608976 ], [ -84.307073067623321, 34.581412611626511 ], [ -84.328720953638197, 34.583642187359999 ], [ -84.336632624984446, 34.579090136904128 ], [ -84.331487611716327, 34.572540758187003 ], [ -84.346485810771483, 34.566316525931015 ], [ -84.319692911488502, 34.467843597701922 ], [ -84.256884919328755, 34.467332653263 ], [ -84.257612987244059, 34.380983043084754 ], [ -84.254118261250625, 34.10428340465991 ], [ -84.213783298743095, 34.099173960270662 ], [ -84.185631339351559, 34.08259149075284 ], [ -84.179224341696937, 34.069678531296383 ], [ -84.143597551708339, 34.054954041556464 ], [ -84.09845734095984, 34.050587789078385 ], [ -84.118018098950856, 34.06596257174057 ], [ -84.110349116909703, 34.097408879481648 ], [ -84.085886034955678, 34.148224626407412 ], [ -84.062830550971242, 34.167872762558787 ], [ -83.868048114698411, 34.098291419876155 ], [ -83.817665814959767, 34.127508151883745 ], [ -83.620116720608806, 34.295283725828781 ], [ -83.561531522357797, 34.252735988914701 ], [ -83.480376218732545, 34.262025887804242 ], [ -83.402424413934597, 34.19750754001641 ], [ -83.372428015824298, 34.205961348005886 ], [ -83.328355638018238, 34.248927130369992 ], [ -83.297582634131629, 34.264580609998859 ], [ -83.286516001819095, 34.253339832342519 ], [ -83.250743598247439, 34.243399640530718 ], [ -83.202545502254679, 34.248323286942174 ], [ -83.172743255588472, 34.238522443613711 ], [ -83.113381451561139, 34.273545362427264 ], [ -83.115856882473153, 34.262118786793138 ], [ -83.076880980074179, 34.222404469040363 ], [ -83.018781160433377, 34.234109741641184 ], [ -82.988347921573904, 34.224448246796065 ], [ -82.996405206503212, 34.219106554934584 ], [ -82.979999409478481, 34.210095353011731 ], [ -82.915541130044062, 34.247672994019908 ], [ -82.773422272977825, 34.288873695595001 ] ] ] } },
{ "type": "Feature", "properties": { "OBJECTID": 913, "GEOID": "AAA06", "ShortLabel": "Middle Georgia" }, "geometry": { "type": "Polygon", "coordinates": [ [ [ -83.164200592048971, 33.355053059218768 ], [ -83.18803268180973, 33.392584250732497 ], [ -83.197157799681477, 33.395835715343836 ], [ -83.223077017466096, 33.379578392287151 ], [ -83.21312675595702, 33.400852260744188 ], [ -83.243899759843629, 33.398669134505148 ], [ -83.239774041656943, 33.419432058523263 ], [ -83.26307221494649, 33.443957391591638 ], [ -83.2572476716241, 33.456220058125822 ], [ -83.274866915174329, 33.464116472181935 ], [ -83.279866314859376, 33.483439461872166 ], [ -83.533573714410338, 33.43452814421876 ], [ -83.545902331109389, 33.171949152106002 ], [ -83.816064065546115, 33.131816788903201 ], [ -83.82227691175666, 33.180263611612141 ], [ -83.842711351246024, 33.196846081129962 ], [ -83.86809665255943, 33.20195552551921 ], [ -84.041522429983502, 33.202652267935925 ], [ -84.044094936617554, 32.947876790890376 ], [ -84.053559819516437, 32.948016139373721 ], [ -84.054190811709688, 32.931480119350347 ], [ -84.123357263663038, 32.932176861767061 ], [ -84.124328020883439, 32.800957039952351 ], [ -84.149325019308677, 32.801189287424592 ], [ -84.202619590708522, 32.690035647211289 ], [ -84.17422494201189, 32.677680081688202 ], [ -84.141073582935306, 32.685065551305385 ], [ -84.128211049765028, 32.674382167582415 ], [ -84.105446792946694, 32.684926202822041 ], [ -84.104961414336501, 32.673406728199019 ], [ -84.07433402403295, 32.635921986179738 ], [ -84.056520629038644, 32.636293582135316 ], [ -84.073897183283776, 32.625424400434561 ], [ -84.066034049798546, 32.610235415750168 ], [ -84.070596608734419, 32.594024542187924 ], [ -84.062733475249189, 32.59091242605993 ], [ -84.062053945194918, 32.577534971658999 ], [ -84.048560419831389, 32.574329956542108 ], [ -84.052734675879094, 32.567083835408269 ], [ -84.046327678224472, 32.567548330352743 ], [ -84.04443470164469, 32.555425012301903 ], [ -84.034969818745822, 32.558304880957657 ], [ -84.021913134131466, 32.545020325545622 ], [ -84.015991515087038, 32.550269118418207 ], [ -84.012982167703811, 32.537774204411782 ], [ -84.002303838279431, 32.533175704461456 ], [ -84.000702088865779, 32.521005936916168 ], [ -84.007885692296725, 32.522910366188519 ], [ -84.018127180971916, 32.506420795659594 ], [ -83.987451252807347, 32.506095649198457 ], [ -83.987305639224289, 32.514363659210147 ], [ -83.971191069365688, 32.514270760221251 ], [ -83.971142531504654, 32.50595630071512 ], [ -83.923381276261082, 32.511344442071049 ], [ -83.931147334024274, 32.483753442369121 ], [ -83.923041511233947, 32.483288947424647 ], [ -83.92284735978987, 32.497456043231189 ], [ -83.900519943720724, 32.496991548286715 ], [ -83.849361038205757, 32.472884260668366 ], [ -83.846206077239458, 32.439394175171586 ], [ -83.836692656479556, 32.43930127618269 ], [ -83.837032421506706, 32.382214847506489 ], [ -83.856544641636702, 32.382400645484282 ], [ -83.856593179497722, 32.357782413427003 ], [ -83.846837069432723, 32.357735963932562 ], [ -83.848390280985356, 32.290988040411236 ], [ -83.718454427035113, 32.290151949511177 ], [ -83.718745654201228, 32.28309162635513 ], [ -83.700349804874691, 32.282580681916208 ], [ -83.700349804874691, 32.29001260102784 ], [ -83.60638050594018, 32.288433318216612 ], [ -83.60638050594018, 32.251320172152916 ], [ -83.615796850978043, 32.25145952063626 ], [ -83.615845388839062, 32.241705126802245 ], [ -83.606914422411393, 32.238267864213114 ], [ -83.608564709686078, 32.118428168538095 ], [ -83.551047344377508, 32.118149471571407 ], [ -83.550853192933417, 32.126185234110856 ], [ -83.541485385756587, 32.12609233512196 ], [ -83.541630999339645, 32.118149471571407 ], [ -83.435672848733219, 32.1172669311769 ], [ -83.43557577301118, 32.125442042199694 ], [ -83.416548931491377, 32.125163345233005 ], [ -83.416451855769338, 32.133059759289111 ], [ -83.396988173500375, 32.132595264344637 ], [ -83.397133787083433, 32.124095006860713 ], [ -83.361118694206667, 32.124095006860713 ], [ -83.350683054087398, 32.112621981732133 ], [ -83.359128641904846, 32.106119052509456 ], [ -83.348304698897422, 32.102867587898118 ], [ -83.30894049361028, 32.125720739166383 ], [ -83.304669161840536, 32.133199107772455 ], [ -83.324812374163784, 32.150385420718102 ], [ -83.291127098615988, 32.178812511320082 ], [ -83.373932689515925, 32.249740889341695 ], [ -83.346508798039679, 32.272501141621056 ], [ -83.498044000143778, 32.401723635174513 ], [ -83.484162171892095, 32.405764741191462 ], [ -83.48246334675639, 32.425134180376148 ], [ -83.49794692442174, 32.452214235639147 ], [ -83.408831411589219, 32.495737411936624 ], [ -83.412034910416537, 32.502100992675956 ], [ -83.399317990829317, 32.500475260370294 ], [ -82.957089539077089, 32.708290298529228 ], [ -82.946993663984955, 32.75938474242168 ], [ -82.960147424321349, 32.759988585849499 ], [ -82.954274343137939, 32.801560883380176 ], [ -82.971845048827134, 32.823066999309454 ], [ -82.970583064440618, 32.835143867865852 ], [ -82.98897891376717, 32.852655327272629 ], [ -83.027032596806762, 32.856139039356201 ], [ -83.037808001953181, 32.880478574446791 ], [ -83.048923172126734, 32.882801049169174 ], [ -83.046399203353701, 32.905375503470751 ], [ -83.062902076100457, 32.919681947760637 ], [ -83.056883381333989, 32.925999079005521 ], [ -83.061106175242728, 32.934592235478341 ], [ -83.071347663917919, 32.933059402161568 ], [ -83.06926053589406, 32.972076977497622 ], [ -83.048826096404696, 32.986383421787508 ], [ -83.067707324341427, 33.027444774879257 ], [ -83.055233094059318, 33.037152719218824 ], [ -83.044312075329842, 33.06400052700959 ], [ -83.052223746676077, 33.080675895516308 ], [ -83.102848735719832, 33.051366264519814 ], [ -83.118817691995375, 33.087085925750088 ], [ -83.11056625562199, 33.127450536425123 ], [ -83.095470980844809, 33.140967339309398 ], [ -83.097509571007635, 33.151418475560128 ], [ -83.275061066618406, 33.189460611512779 ], [ -83.252636574827207, 33.234284373654795 ], [ -83.25346171846455, 33.259274201667651 ], [ -83.239045973741639, 33.262618565267879 ], [ -83.229484015120718, 33.256301434022994 ], [ -83.229095712232564, 33.276878560063324 ], [ -83.204001638085288, 33.279108135796811 ], [ -83.146484272776704, 33.309068059715564 ], [ -83.150512915241364, 33.321934569677573 ], [ -83.144105917586728, 33.339864074534376 ], [ -83.164200592048971, 33.355053059218768 ] ] ] } },
{ "type": "Feature", "properties": { "OBJECTID": 914, "GEOID": "AAA07", "ShortLabel": "Northeast Georgia" }, "geometry": { "type": "Polygon", "coordinates": [ [ [ -82.564515319148214, 33.955737921416215 ], [ -82.58029012397968, 33.981285143362442 ], [ -82.575387800016671, 33.991922077590957 ], [ -82.58786203029878, 33.998703703780322 ], [ -82.595336860895841, 34.015239723803695 ], [ -82.594463179397493, 34.029313920621348 ], [ -82.643680570471659, 34.072093905007662 ], [ -82.642418586085142, 34.093274874475803 ], [ -82.658727307387821, 34.103772460220981 ], [ -82.676977543131301, 34.131456358911798 ], [ -82.717458119221888, 34.150547101129803 ], [ -82.741824125453874, 34.209956004528387 ], [ -82.746823525138922, 34.266577938260113 ], [ -82.773422272977825, 34.288873695595001 ], [ -82.915541130044062, 34.247672994019908 ], [ -82.979999409478481, 34.210095353011731 ], [ -82.996405206503212, 34.219106554934584 ], [ -82.988347921573904, 34.224448246796065 ], [ -83.018781160433377, 34.234109741641184 ], [ -83.076880980074179, 34.222404469040363 ], [ -83.115856882473153, 34.262118786793138 ], [ -83.113381451561139, 34.273545362427264 ], [ -83.172743255588472, 34.238522443613711 ], [ -83.202545502254679, 34.248323286942174 ], [ -83.250743598247439, 34.243399640530718 ], [ -83.286516001819095, 34.253339832342519 ], [ -83.297582634131629, 34.264580609998859 ], [ -83.328355638018238, 34.248927130369992 ], [ -83.372428015824298, 34.205961348005886 ], [ -83.402424413934597, 34.19750754001641 ], [ -83.480376218732545, 34.262025887804242 ], [ -83.561531522357797, 34.252735988914701 ], [ -83.620116720608806, 34.295283725828781 ], [ -83.817665814959767, 34.127508151883745 ], [ -83.86911594764085, 34.004324092608492 ], [ -83.838245868032203, 33.983607618084825 ], [ -83.831838870377567, 33.966142608172497 ], [ -83.81368571035614, 33.954483785066124 ], [ -83.799124352050171, 33.929865553008852 ], [ -83.982209163817203, 33.786150817187725 ], [ -83.914838612721582, 33.744206923701462 ], [ -83.91323686330793, 33.712574817982592 ], [ -83.925516942145961, 33.706582833198837 ], [ -83.918139187270938, 33.689350070758749 ], [ -83.931487099051409, 33.650936338850514 ], [ -84.010458198930777, 33.563564839794424 ], [ -84.003371671221871, 33.563518390299976 ], [ -84.003274595499832, 33.554878784332708 ], [ -84.010652350374855, 33.554925233827156 ], [ -84.010700888235874, 33.563332592322183 ], [ -84.055210106791108, 33.5189268756302 ], [ -84.050210707106061, 33.510798214101854 ], [ -84.042930027953076, 33.519902315013603 ], [ -84.043027103675115, 33.509776325224003 ], [ -84.030018956921793, 33.500114830378884 ], [ -84.037251098213758, 33.495841476889701 ], [ -84.028077442480992, 33.491521673906064 ], [ -84.01579736364296, 33.498071052623189 ], [ -83.974200416748914, 33.483532360861062 ], [ -83.946388222384513, 33.4827891689499 ], [ -83.946339684523494, 33.4827891689499 ], [ -83.946388222384513, 33.4827891689499 ], [ -83.946388222384513, 33.482556921477659 ], [ -83.946388222384513, 33.482696269961004 ], [ -83.923915192732309, 33.444189639063879 ], [ -83.910373129507761, 33.425702740273699 ], [ -83.912557333253659, 33.417806326217594 ], [ -83.895423468313624, 33.407959033394683 ], [ -83.894549786815276, 33.395835715343836 ], [ -83.864262161538861, 33.377023670092527 ], [ -83.857078558107915, 33.353845372363132 ], [ -83.863000177152344, 33.341582705828941 ], [ -83.839653466001778, 33.327787205977984 ], [ -83.842711351246024, 33.318032812143969 ], [ -83.827421925024765, 33.292485590197742 ], [ -83.832421324709813, 33.272512307585238 ], [ -83.81339448319001, 33.248590817944681 ], [ -83.834411377011634, 33.210595131486478 ], [ -83.807375788423542, 33.193408818540831 ], [ -83.82227691175666, 33.180263611612141 ], [ -83.816064065546115, 33.131816788903201 ], [ -83.545902331109389, 33.171949152106002 ], [ -83.533573714410338, 33.43452814421876 ], [ -83.279866314859376, 33.483439461872166 ], [ -83.274866915174329, 33.464116472181935 ], [ -83.2572476716241, 33.456220058125822 ], [ -83.26307221494649, 33.443957391591638 ], [ -83.239774041656943, 33.419432058523263 ], [ -83.243899759843629, 33.398669134505148 ], [ -83.21312675595702, 33.400852260744188 ], [ -83.223077017466096, 33.379578392287151 ], [ -83.197157799681477, 33.395835715343836 ], [ -83.18803268180973, 33.392584250732497 ], [ -83.164200592048971, 33.355053059218768 ], [ -82.985581263495774, 33.489849492105947 ], [ -82.986018104244948, 33.520366809958077 ], [ -83.014024450053427, 33.580426006278934 ], [ -82.989901133126537, 33.603279157547192 ], [ -83.001598757632337, 33.620233223020598 ], [ -82.987716929380639, 33.628965727976762 ], [ -82.980096485200519, 33.614705733181324 ], [ -82.970534526579598, 33.641739338949876 ], [ -82.950731079283486, 33.660969429651217 ], [ -82.963690688175802, 33.676808707257877 ], [ -82.995580062865869, 33.693576974753491 ], [ -82.995628600726889, 33.693576974753491 ], [ -82.995580062865869, 33.693576974753491 ], [ -82.988542073017982, 33.706675732187733 ], [ -82.949032254147795, 33.733337742000707 ], [ -82.987280088631465, 33.780669776842899 ], [ -82.976698834929124, 33.80185074631104 ], [ -82.960826954375619, 33.811744488628392 ], [ -82.942479642910101, 33.848950533680991 ], [ -82.922433506308892, 33.856103755825934 ], [ -82.883894444659092, 33.912354093602076 ], [ -82.855548333823478, 33.927496628792021 ], [ -82.848655957558663, 33.939945093304004 ], [ -82.793759636745165, 33.948677598260169 ], [ -82.779489505605312, 33.971112704078401 ], [ -82.656203338614787, 33.991411133152035 ], [ -82.641108063837606, 33.98244638072363 ], [ -82.639360700840882, 33.97273843638407 ], [ -82.62742038703, 33.981796087801364 ], [ -82.609704067757733, 33.981517390834682 ], [ -82.564515319148214, 33.955737921416215 ] ] ] } },
{ "type": "Feature", "properties": { "OBJECTID": 915, "GEOID": "AAA08", "ShortLabel": "Northwest Georgia" }, "geometry": { "type": "Polygon", "coordinates": [ [ [ -84.129424496290525, 34.98756699107706 ], [ -85.605169622739297, 34.984687122421299 ], [ -85.338211387129888, 33.65311946508956 ], [ -85.333891517499126, 33.653026566100664 ], [ -85.334037131082184, 33.653026566100664 ], [ -85.289770601832046, 33.652097576211709 ], [ -85.139012005504256, 33.700033454481719 ], [ -85.114985764299419, 33.691347399020003 ], [ -85.066544979001563, 33.714990191693872 ], [ -85.050915787753155, 33.714618595738287 ], [ -85.049314038339503, 33.812441231045113 ], [ -84.901710402978011, 33.78071622633734 ], [ -84.832689564607733, 33.776024827398125 ], [ -84.724110369506235, 33.788612640393453 ], [ -84.723236688007873, 33.947377012415629 ], [ -84.739642485032604, 33.947609259887869 ], [ -84.737846584174861, 34.07938647563595 ], [ -84.659215249322642, 34.077992990802514 ], [ -84.654021698193503, 34.346935563654604 ], [ -84.644702428877693, 34.346842664665708 ], [ -84.644314125989524, 34.355157124171846 ], [ -84.654021698193503, 34.355203573666294 ], [ -84.653245092417194, 34.412615148803631 ], [ -84.582816656077327, 34.412197103353598 ], [ -84.58262250463325, 34.381493987523683 ], [ -84.442348086285762, 34.380379199656936 ], [ -84.442153934841684, 34.388182714724145 ], [ -84.42453469129147, 34.38799691674636 ], [ -84.42453469129147, 34.380611447129176 ], [ -84.400751139391716, 34.38051854814028 ], [ -84.400799677252735, 34.373272427006441 ], [ -84.392208475852215, 34.373318876500889 ], [ -84.392111400130176, 34.380704346118073 ], [ -84.257612987244059, 34.380983043084754 ], [ -84.256884919328755, 34.467332653263 ], [ -84.319692911488502, 34.467843597701922 ], [ -84.346485810771483, 34.566316525931015 ], [ -84.331487611716327, 34.572540758187003 ], [ -84.336632624984446, 34.579090136904128 ], [ -84.328720953638197, 34.583642187359999 ], [ -84.307073067623321, 34.581412611626511 ], [ -84.292171944290217, 34.569010596608976 ], [ -84.2757661472655, 34.573748445042646 ], [ -84.255234632054083, 34.568313854192262 ], [ -84.254700715582871, 34.597484136705411 ], [ -84.223927711696248, 34.59701964176093 ], [ -84.196746509525113, 34.617921914262389 ], [ -84.188543611012747, 34.602686480083548 ], [ -84.103650892088964, 34.727821418125608 ], [ -84.093166714108662, 34.727774968631159 ], [ -84.093215251969681, 34.80139741733074 ], [ -84.123988255856304, 34.796055725469259 ], [ -84.141753112989576, 34.807342952620047 ], [ -84.147626194172986, 34.83786027047217 ], [ -84.14248118090488, 34.854071144034414 ], [ -84.113746767181098, 34.870374916585547 ], [ -84.107679534553611, 34.88765412852009 ], [ -84.133550214477211, 34.916499264572103 ], [ -84.160828492370399, 34.926903951328384 ], [ -84.17873896308673, 34.946830784446433 ], [ -84.172380503293127, 34.959325698452865 ], [ -84.129424496290525, 34.98756699107706 ] ] ] } },
{ "type": "Feature", "properties": { "OBJECTID": 916, "GEOID": "AAA09", "ShortLabel": "River Valley" }, "geometry": { "type": "Polygon", "coordinates": [ [ [ -84.202619590708522, 32.690035647211289 ], [ -84.219365152760389, 32.720320717591179 ], [ -84.236304866256333, 32.721063909502341 ], [ -84.229169800686407, 32.732304687158681 ], [ -84.235819487646125, 32.738296671942429 ], [ -84.255525859220199, 32.72245739433577 ], [ -84.262709462651145, 32.73931856082028 ], [ -84.284260272943982, 32.744520904198417 ], [ -84.301394137884003, 32.761335621188479 ], [ -84.316149647634049, 32.755529434382524 ], [ -84.336147246374239, 32.75970988888281 ], [ -84.352116202649782, 32.783259782567789 ], [ -84.355562390782197, 32.773551838228222 ], [ -84.382549441509255, 32.780287014923132 ], [ -84.421185578881094, 32.838813377927217 ], [ -84.434193725634429, 32.838070186016054 ], [ -84.442736389173916, 32.825203676054045 ], [ -84.456666755286633, 32.828687388137624 ], [ -84.467296546849994, 32.853026923228207 ], [ -84.490109341529333, 32.856882231267363 ], [ -84.475499445362345, 32.876344569440946 ], [ -84.497632709987414, 32.883544241080337 ], [ -84.570682190822353, 32.845176958666549 ], [ -84.700520969050558, 32.844666014227627 ], [ -84.751485723121448, 32.862688418073326 ], [ -84.75134010953839, 32.869191347296002 ], [ -85.184152216252755, 32.870538382634983 ], [ -85.179346968011785, 32.855256498961694 ], [ -85.161921875905648, 32.856417736322889 ], [ -85.153379212366147, 32.844851812205413 ], [ -85.168037646394154, 32.829198332576546 ], [ -85.167940570672116, 32.811640423675321 ], [ -85.122314981313423, 32.774387929128281 ], [ -85.136682188175314, 32.771182914011391 ], [ -85.142992110107897, 32.75994213635505 ], [ -85.13313892432086, 32.744660252681761 ], [ -85.113335477024734, 32.735741949747805 ], [ -85.122751822062597, 32.716047364101989 ], [ -85.117024354462245, 32.692032975472536 ], [ -85.088484092182554, 32.657753248570145 ], [ -85.104550124180136, 32.641031430568979 ], [ -85.100084640966315, 32.634574950840751 ], [ -85.083144927470371, 32.636154233651972 ], [ -85.090910985233549, 32.625145703467872 ], [ -85.067515736221964, 32.579532299920245 ], [ -85.007086099252192, 32.523885805571922 ], [ -84.996553383410884, 32.501636497731482 ], [ -84.995339936885387, 32.453236124516998 ], [ -84.971847612151763, 32.442831437760717 ], [ -84.963013721446131, 32.424251639981641 ], [ -84.980972730023495, 32.406089887652598 ], [ -84.968741189046483, 32.391458296901575 ], [ -84.988399022759538, 32.385234064645587 ], [ -84.972138839317878, 32.376919605139449 ], [ -84.985341137515292, 32.372506903166922 ], [ -84.983885001684683, 32.362380913377329 ], [ -85.004562130479158, 32.345194600431682 ], [ -85.006406569197921, 32.326754151135951 ], [ -84.934667610610518, 32.298930903961789 ], [ -84.888265415475502, 32.259681081153502 ], [ -84.901176486506799, 32.258380495308963 ], [ -84.907243719134286, 32.24904414692498 ], [ -84.924426121935326, 32.250158934791727 ], [ -84.912728497429526, 32.243377308602362 ], [ -84.928212075094876, 32.219873864411838 ], [ -84.973352285843376, 32.217644288678343 ], [ -84.980244662108191, 32.207750546360991 ], [ -84.964615470859798, 32.203570091860698 ], [ -84.963741789361436, 32.195859475782385 ], [ -85.011211817438891, 32.180531142614647 ], [ -85.061594117177535, 32.133431355244696 ], [ -85.044751479403629, 32.085820623435822 ], [ -85.055818111716164, 32.074440497296138 ], [ -85.058827459099405, 32.046942396583106 ], [ -85.04882865972931, 32.021720321098016 ], [ -85.067321584777886, 31.995569255723971 ], [ -85.067855501249099, 31.967374412594225 ], [ -85.086736729185844, 31.959152852076986 ], [ -85.078922133561633, 31.940155008847885 ], [ -85.113141325580656, 31.911867266729246 ], [ -85.112024954777198, 31.894773852772499 ], [ -85.134352370846358, 31.891475938666712 ], [ -85.128430751801929, 31.877587539826855 ], [ -85.14075936850098, 31.857474908731007 ], [ -85.141827201443419, 31.839266706907516 ], [ -85.13211962923944, 31.827979479756728 ], [ -85.132216704961479, 31.795186136676662 ], [ -85.141924277165458, 31.781948030759075 ], [ -85.125227252974611, 31.767084192535815 ], [ -85.129255895439258, 31.758676834040784 ], [ -85.118917331042027, 31.732665117150081 ], [ -85.125955320889915, 31.696248713503099 ], [ -85.079116285005711, 31.654769314961317 ], [ -85.086251350575637, 31.638558441399077 ], [ -85.057905239740023, 31.619699946653316 ], [ -85.057953777601043, 31.570835078494351 ], [ -85.041353829132234, 31.542500886881264 ], [ -85.045479547318934, 31.51713946291283 ], [ -85.029413515321352, 31.518672296229603 ], [ -85.029219363877274, 31.48606475112733 ], [ -84.986360432596697, 31.488851720794191 ], [ -84.971410771402574, 31.49730552878367 ], [ -84.959761684757808, 31.492660579338903 ], [ -84.937822571576817, 31.503251064072973 ], [ -84.819827031437455, 31.501207286317275 ], [ -84.819924107159494, 31.514398942740417 ], [ -84.80783817976554, 31.518718745724051 ], [ -84.810022383511438, 31.530842063774898 ], [ -84.819535804271339, 31.530934962763794 ], [ -84.818953349939093, 31.547889028237197 ], [ -84.810313610677554, 31.547703230259405 ], [ -84.799149902642981, 31.565261139160629 ], [ -84.818419433467881, 31.565725634105107 ], [ -84.818176744162784, 31.593177285323687 ], [ -84.82807846781084, 31.592480542906973 ], [ -84.827932854227782, 31.601909790279851 ], [ -84.818031130579726, 31.601956239774299 ], [ -84.817836979135649, 31.619792845642213 ], [ -84.656497129105517, 31.619978643620001 ], [ -84.65630297766144, 31.637908148476807 ], [ -84.649313525674586, 31.643667885788322 ], [ -84.622229399225475, 31.637815249487911 ], [ -84.622520626391605, 31.628478901103929 ], [ -84.606939973004216, 31.628246653631688 ], [ -84.606794359421158, 31.637815249487911 ], [ -84.597135325078199, 31.637629451510122 ], [ -84.597426552244315, 31.621372128453434 ], [ -84.586505533514838, 31.621186330475641 ], [ -84.586602609236877, 31.637397204037882 ], [ -84.577962869975337, 31.637257855554541 ], [ -84.578011407836357, 31.621093431486745 ], [ -84.568837752103605, 31.621093431486745 ], [ -84.568837752103605, 31.628618249587269 ], [ -84.545588116675077, 31.621929522386804 ], [ -84.535103938694775, 31.679015951063008 ], [ -84.570342425795218, 31.757004652240667 ], [ -84.563158822364272, 31.770614354113839 ], [ -84.603105481983647, 31.772007838947271 ], [ -84.599756369573271, 31.920181726235381 ], [ -84.453317642876257, 31.919252736346426 ], [ -84.45312349143218, 31.926359508996921 ], [ -84.445260357946964, 31.926127261524684 ], [ -84.443804222116356, 31.967467311583121 ], [ -84.340515653866035, 31.872756792404296 ], [ -84.33813729867606, 31.91618706971288 ], [ -83.92284735978987, 31.909730589984651 ], [ -83.934059605685462, 31.881396398371564 ], [ -83.926536237227381, 31.863281095536969 ], [ -83.937166028790742, 31.857474908731007 ], [ -83.937602869539916, 31.844933545230134 ], [ -83.855476808694263, 31.837176479657369 ], [ -83.855331195111205, 31.819850818228385 ], [ -83.845575085046207, 31.819757919239489 ], [ -83.845478009324168, 31.831556090829199 ], [ -83.827858765773939, 31.81009642439437 ], [ -83.802230775155437, 31.803500596182801 ], [ -83.612641890011744, 31.804150889105067 ], [ -83.61225358712359, 31.854084095636328 ], [ -83.608564709686078, 32.118428168538095 ], [ -83.606914422411393, 32.238267864213114 ], [ -83.615845388839062, 32.241705126802245 ], [ -83.615796850978043, 32.25145952063626 ], [ -83.60638050594018, 32.251320172152916 ], [ -83.60638050594018, 32.288433318216612 ], [ -83.700349804874691, 32.29001260102784 ], [ -83.700349804874691, 32.282580681916208 ], [ -83.718745654201228, 32.28309162635513 ], [ -83.718454427035113, 32.290151949511177 ], [ -83.848390280985356, 32.290988040411236 ], [ -83.846837069432723, 32.357735963932562 ], [ -83.856593179497722, 32.357782413427003 ], [ -83.856544641636702, 32.382400645484282 ], [ -83.837032421506706, 32.382214847506489 ], [ -83.836692656479556, 32.43930127618269 ], [ -83.846206077239458, 32.439394175171586 ], [ -83.849361038205757, 32.472884260668366 ], [ -83.900519943720724, 32.496991548286715 ], [ -83.92284735978987, 32.497456043231189 ], [ -83.923041511233947, 32.483288947424647 ], [ -83.931147334024274, 32.483753442369121 ], [ -83.923381276261082, 32.511344442071049 ], [ -83.971142531504654, 32.50595630071512 ], [ -83.971191069365688, 32.514270760221251 ], [ -83.987305639224289, 32.514363659210147 ], [ -83.987451252807347, 32.506095649198457 ], [ -84.018127180971916, 32.506420795659594 ], [ -84.007885692296725, 32.522910366188519 ], [ -84.000702088865779, 32.521005936916168 ], [ -84.002303838279431, 32.533175704461456 ], [ -84.012982167703811, 32.537774204411782 ], [ -84.015991515087038, 32.550269118418207 ], [ -84.021913134131466, 32.545020325545622 ], [ -84.034969818745822, 32.558304880957657 ], [ -84.04443470164469, 32.555425012301903 ], [ -84.046327678224472, 32.567548330352743 ], [ -84.052734675879094, 32.567083835408269 ], [ -84.048560419831389, 32.574329956542108 ], [ -84.062053945194918, 32.577534971658999 ], [ -84.062733475249189, 32.59091242605993 ], [ -84.070596608734419, 32.594024542187924 ], [ -84.066034049798546, 32.610235415750168 ], [ -84.073897183283776, 32.625424400434561 ], [ -84.056520629038644, 32.636293582135316 ], [ -84.07433402403295, 32.635921986179738 ], [ -84.104961414336501, 32.673406728199019 ], [ -84.105446792946694, 32.684926202822041 ], [ -84.128211049765028, 32.674382167582415 ], [ -84.141073582935306, 32.685065551305385 ], [ -84.17422494201189, 32.677680081688202 ], [ -84.202619590708522, 32.690035647211289 ] ] ] } },
{ "type": "Feature", "properties": { "OBJECTID": 917, "GEOID": "AAA10", "ShortLabel": "Southern Georgia" }, "geometry": { "type": "Polygon", "coordinates": [ [ [ -81.731702699768917, 31.330040899277563 ], [ -81.801063303166345, 31.36376323224658 ], [ -81.923233099353411, 31.345880176884222 ], [ -82.031521067288793, 31.366410853430096 ], [ -82.042636237462347, 31.374167919002861 ], [ -82.043898221848863, 31.394884393526528 ], [ -82.05753736079545, 31.409097938827518 ], [ -82.0527806504155, 31.4545719938918 ], [ -82.063604593422937, 31.466555963459303 ], [ -82.09787232330298, 31.48123400370477 ], [ -82.140245875973349, 31.469528731103956 ], [ -82.159709558242326, 31.473523387626457 ], [ -82.219071362269645, 31.518718745724051 ], [ -82.24076778614554, 31.555692543304406 ], [ -82.308866405156451, 31.588578785373368 ], [ -82.367597216990518, 31.630476229365179 ], [ -82.407543876609893, 31.639208734321343 ], [ -82.435744373862448, 31.660668400756173 ], [ -82.450888186500649, 31.661365143172887 ], [ -82.49588278366609, 31.710601607287433 ], [ -82.521413698562554, 31.710787405265222 ], [ -82.521413698562554, 31.672513021840331 ], [ -82.836618568025727, 31.671398233973587 ], [ -82.836375878720631, 31.816181308167018 ], [ -82.862829012976462, 31.783062818625819 ], [ -82.877196219838353, 31.780972591375672 ], [ -82.876516689784069, 31.787103924642768 ], [ -82.890544131618825, 31.780368747947854 ], [ -82.899669249490557, 31.783202167109163 ], [ -82.898795567992209, 31.79147017712085 ], [ -82.918938780315457, 31.778696566147737 ], [ -82.919375621064646, 31.784316954975907 ], [ -82.956458546883837, 31.783016369131371 ], [ -82.977475440705447, 31.793328156898756 ], [ -82.982474840390495, 31.783852460031429 ], [ -82.99067773890286, 31.787196823631664 ], [ -82.990386511736745, 31.776652788392038 ], [ -82.997861342333806, 31.781669333792387 ], [ -83.005773013680042, 31.774655460130788 ], [ -83.080375706067613, 31.800620727527043 ], [ -83.086685628000197, 31.812744045577887 ], [ -83.099256934004359, 31.808284894110912 ], [ -83.105906620964078, 31.819107626317219 ], [ -83.110614793483009, 31.809492580966552 ], [ -83.13085508152831, 31.810700267822192 ], [ -83.140853880898405, 31.817760590978239 ], [ -83.132553906664, 31.815205868783615 ], [ -83.134592496826841, 31.824124171717571 ], [ -83.151969051071958, 31.824867363628734 ], [ -83.182839130680605, 31.851993868386181 ], [ -83.213854823872325, 31.844654848263446 ], [ -83.61225358712359, 31.854084095636328 ], [ -83.612641890011744, 31.804150889105067 ], [ -83.802230775155437, 31.803500596182801 ], [ -83.796843072582234, 31.622951411264655 ], [ -83.706659726807274, 31.619189002214391 ], [ -83.698650979738986, 31.602699431685462 ], [ -83.669965103876237, 31.59512816409049 ], [ -83.667392597242184, 31.567676512871909 ], [ -83.649385050803801, 31.568001659333042 ], [ -83.650647035190318, 31.484764165282794 ], [ -83.665790847828532, 31.485135761238375 ], [ -83.66666452932688, 31.434180665829267 ], [ -83.651763405993776, 31.433901968862582 ], [ -83.654093223322732, 31.330644742705381 ], [ -83.512605358449747, 31.327393278094043 ], [ -83.515274940805838, 31.301520909686683 ], [ -83.505567368601859, 31.269006263573306 ], [ -83.513721729253206, 31.233936895265305 ], [ -83.509790162510598, 31.206206547080036 ], [ -83.540708779980264, 31.178987143333696 ], [ -83.543475438058394, 31.148005330537089 ], [ -83.555901130479498, 31.144521618453513 ], [ -83.557357266310092, 31.110520588517808 ], [ -83.576675334996011, 31.084601770616 ], [ -83.573957214778886, 31.033878922679133 ], [ -83.736170746307366, 31.037687781223841 ], [ -83.743742652626466, 30.658381209564059 ], [ -82.214702954777863, 30.568547887302238 ], [ -82.23416663704684, 30.557678705601479 ], [ -82.240428021118404, 30.537798321977871 ], [ -82.225090057036113, 30.507699049575773 ], [ -82.201257967275353, 30.485124595274197 ], [ -82.210868463757294, 30.425344095920028 ], [ -82.192812379457891, 30.379080399450135 ], [ -82.161796686266172, 30.357109788576384 ], [ -82.105250078178003, 30.368907960166094 ], [ -82.06617710005699, 30.3557627532374 ], [ -82.037199997028111, 30.3718342783163 ], [ -82.043752608265805, 30.414892959669302 ], [ -82.034045036061826, 30.420048853552995 ], [ -82.040015192967275, 30.436677772565265 ], [ -82.016911171121805, 30.475137953967945 ], [ -82.019046837006684, 30.533014024049759 ], [ -82.005407698060083, 30.563577791396337 ], [ -82.015066732403042, 30.600598038471141 ], [ -82.027249735519035, 30.606682922243785 ], [ -82.028269030600455, 30.622011255411522 ], [ -82.049043235116969, 30.655315542930509 ], [ -82.050353757364505, 30.675753320487491 ], [ -82.035938012641594, 30.706224188845173 ], [ -82.045597046984554, 30.727265809829973 ], [ -82.03933566291299, 30.749375769187068 ], [ -82.011620544270642, 30.761870683193496 ], [ -82.023852085247654, 30.783655496089459 ], [ -82.017445087593018, 30.79108741520109 ], [ -82.003757410785411, 30.791784157617805 ], [ -81.977741117278754, 30.77664162242786 ], [ -81.962257539613404, 30.796707804029261 ], [ -81.95978210870139, 30.821186687603188 ], [ -81.938813752740799, 30.829872743064904 ], [ -81.928766415509685, 30.81751717754182 ], [ -81.90910858179663, 30.815705647258362 ], [ -81.904837250026873, 30.828339909748131 ], [ -81.892120330439667, 30.909998120987158 ], [ -81.896294586487372, 30.904842227103465 ], [ -81.906244847996447, 30.908790434131518 ], [ -81.902167667670781, 30.91501466638751 ], [ -81.915467041590233, 30.914178575487451 ], [ -81.891877641134556, 30.960070676001763 ], [ -81.913476989288412, 30.974562918269438 ], [ -81.917602707475112, 30.985850145420226 ], [ -81.914544822230852, 30.996069034198715 ], [ -81.907361218799906, 30.995836786726478 ], [ -81.911438399125586, 31.011025771410871 ], [ -81.904691636443815, 31.037176836784916 ], [ -81.935852943218578, 31.047627973035645 ], [ -81.936920776161017, 31.060494482997655 ], [ -81.926290984597671, 31.060912528447684 ], [ -81.92735881754011, 31.079306528248967 ], [ -81.915903882339407, 31.095285154338971 ], [ -81.840670197758584, 31.097654078555802 ], [ -81.819070849604728, 31.136532305408512 ], [ -81.801451606054499, 31.151210345653979 ], [ -81.790676200908095, 31.146054451770286 ], [ -81.766310194676109, 31.169604345455262 ], [ -81.779609568595561, 31.164912946516047 ], [ -81.782473302395729, 31.17206616866099 ], [ -81.766892649008341, 31.201468698646373 ], [ -81.749661708346281, 31.275230495829295 ], [ -81.733838365653796, 31.29678306125302 ], [ -81.731702699768917, 31.330040899277563 ] ] ] } },
{ "type": "Feature", "properties": { "OBJECTID": 918, "GEOID": "AAA11", "ShortLabel": "Sowega Council" }, "geometry": { "type": "Polygon", "coordinates": [ [ [ -83.802230775155437, 31.803500596182801 ], [ -83.827858765773939, 31.81009642439437 ], [ -83.845478009324168, 31.831556090829199 ], [ -83.845575085046207, 31.819757919239489 ], [ -83.855331195111205, 31.819850818228385 ], [ -83.855476808694263, 31.837176479657369 ], [ -83.937602869539916, 31.844933545230134 ], [ -83.937166028790742, 31.857474908731007 ], [ -83.926536237227381, 31.863281095536969 ], [ -83.934059605685462, 31.881396398371564 ], [ -83.92284735978987, 31.909730589984651 ], [ -84.33813729867606, 31.91618706971288 ], [ -84.340515653866035, 31.872756792404296 ], [ -84.443804222116356, 31.967467311583121 ], [ -84.445260357946964, 31.926127261524684 ], [ -84.45312349143218, 31.926359508996921 ], [ -84.453317642876257, 31.919252736346426 ], [ -84.599756369573271, 31.920181726235381 ], [ -84.603105481983647, 31.772007838947271 ], [ -84.563158822364272, 31.770614354113839 ], [ -84.570342425795218, 31.757004652240667 ], [ -84.535103938694775, 31.679015951063008 ], [ -84.545588116675077, 31.621929522386804 ], [ -84.568837752103605, 31.628618249587269 ], [ -84.568837752103605, 31.621093431486745 ], [ -84.578011407836357, 31.621093431486745 ], [ -84.577962869975337, 31.637257855554541 ], [ -84.586602609236877, 31.637397204037882 ], [ -84.586505533514838, 31.621186330475641 ], [ -84.597426552244315, 31.621372128453434 ], [ -84.597135325078199, 31.637629451510122 ], [ -84.606794359421158, 31.637815249487911 ], [ -84.606939973004216, 31.628246653631688 ], [ -84.622520626391605, 31.628478901103929 ], [ -84.622229399225475, 31.637815249487911 ], [ -84.649313525674586, 31.643667885788322 ], [ -84.65630297766144, 31.637908148476807 ], [ -84.656497129105517, 31.619978643620001 ], [ -84.817836979135649, 31.619792845642213 ], [ -84.818031130579726, 31.601956239774299 ], [ -84.827932854227782, 31.601909790279851 ], [ -84.82807846781084, 31.592480542906973 ], [ -84.818176744162784, 31.593177285323687 ], [ -84.818419433467881, 31.565725634105107 ], [ -84.799149902642981, 31.565261139160629 ], [ -84.810313610677554, 31.547703230259405 ], [ -84.818953349939093, 31.547889028237197 ], [ -84.819535804271339, 31.530934962763794 ], [ -84.810022383511438, 31.530842063774898 ], [ -84.80783817976554, 31.518718745724051 ], [ -84.819924107159494, 31.514398942740417 ], [ -84.819827031437455, 31.501207286317275 ], [ -84.937822571576817, 31.503251064072973 ], [ -84.959761684757808, 31.492660579338903 ], [ -84.971410771402574, 31.49730552878367 ], [ -84.986360432596697, 31.488851720794191 ], [ -85.029219363877274, 31.48606475112733 ], [ -85.029413515321352, 31.518672296229603 ], [ -85.045479547318934, 31.51713946291283 ], [ -85.071641454408649, 31.468367493742761 ], [ -85.06601106253035, 31.430557605262347 ], [ -85.075912786178407, 31.424937216434177 ], [ -85.077611611314097, 31.398879050049029 ], [ -85.092512734647201, 31.362880691852073 ], [ -85.083678843941584, 31.323863116516019 ], [ -85.08979461443009, 31.295017980464007 ], [ -85.11459746141125, 31.277320723079441 ], [ -85.096784066416959, 31.225668885253615 ], [ -85.107510933702358, 31.186465511939772 ], [ -85.098531429413669, 31.180148380694888 ], [ -85.099939027383243, 31.165191643482732 ], [ -85.076737929815735, 31.157016532459942 ], [ -85.054701740912705, 31.120832376285193 ], [ -85.035626361531897, 31.108198113795424 ], [ -85.028588371684009, 31.074568679815304 ], [ -85.011405968882968, 31.053573508324948 ], [ -84.999417117211053, 31.01385919057218 ], [ -85.005775577004655, 30.976002852597318 ], [ -84.982525941576128, 30.965598165841037 ], [ -84.983545236657548, 30.935498893438936 ], [ -84.934424921305421, 30.883614808140877 ], [ -84.939812623878623, 30.872606277956773 ], [ -84.925688106321843, 30.842692803532465 ], [ -84.937434268688648, 30.820907990636503 ], [ -84.917922048558651, 30.777802859789052 ], [ -84.920106252304549, 30.766004688199342 ], [ -84.91350510320585, 30.752302087337274 ], [ -84.896128548960732, 30.750583456042708 ], [ -84.864724552880858, 30.711565880706654 ], [ -83.743742652626466, 30.658381209564059 ], [ -83.736170746307366, 31.037687781223841 ], [ -83.573957214778886, 31.033878922679133 ], [ -83.576675334996011, 31.084601770616 ], [ -83.557357266310092, 31.110520588517808 ], [ -83.555901130479498, 31.144521618453513 ], [ -83.543475438058394, 31.148005330537089 ], [ -83.540708779980264, 31.178987143333696 ], [ -83.509790162510598, 31.206206547080036 ], [ -83.513721729253206, 31.233936895265305 ], [ -83.505567368601859, 31.269006263573306 ], [ -83.515274940805838, 31.301520909686683 ], [ -83.512605358449747, 31.327393278094043 ], [ -83.654093223322732, 31.330644742705381 ], [ -83.651763405993776, 31.433901968862582 ], [ -83.66666452932688, 31.434180665829267 ], [ -83.665790847828532, 31.485135761238375 ], [ -83.650647035190318, 31.484764165282794 ], [ -83.649385050803801, 31.568001659333042 ], [ -83.667392597242184, 31.567676512871909 ], [ -83.669965103876237, 31.59512816409049 ], [ -83.698650979738986, 31.602699431685462 ], [ -83.706659726807274, 31.619189002214391 ], [ -83.796843072582234, 31.622951411264655 ], [ -83.802230775155437, 31.803500596182801 ] ] ] } },
{ "type": "Feature", "properties": { "OBJECTID": 919, "GEOID": "AAA12", "ShortLabel": "Three Rivers" }, "geometry": { "type": "Polygon", "coordinates": [ [ [ -84.901710402978011, 33.78071622633734 ], [ -85.049314038339503, 33.812441231045113 ], [ -85.050915787753155, 33.714618595738287 ], [ -85.066544979001563, 33.714990191693872 ], [ -85.114985764299419, 33.691347399020003 ], [ -85.139012005504256, 33.700033454481719 ], [ -85.289770601832046, 33.652097576211709 ], [ -85.334037131082184, 33.653026566100664 ], [ -85.333891517499126, 33.653026566100664 ], [ -85.338211387129888, 33.65311946508956 ], [ -85.184152216252755, 32.870538382634983 ], [ -84.75134010953839, 32.869191347296002 ], [ -84.751485723121448, 32.862688418073326 ], [ -84.700520969050558, 32.844666014227627 ], [ -84.570682190822353, 32.845176958666549 ], [ -84.497632709987414, 32.883544241080337 ], [ -84.475499445362345, 32.876344569440946 ], [ -84.490109341529333, 32.856882231267363 ], [ -84.467296546849994, 32.853026923228207 ], [ -84.456666755286633, 32.828687388137624 ], [ -84.442736389173916, 32.825203676054045 ], [ -84.434193725634429, 32.838070186016054 ], [ -84.421185578881094, 32.838813377927217 ], [ -84.382549441509255, 32.780287014923132 ], [ -84.355562390782197, 32.773551838228222 ], [ -84.352116202649782, 32.783259782567789 ], [ -84.336147246374239, 32.75970988888281 ], [ -84.316149647634049, 32.755529434382524 ], [ -84.301394137884003, 32.761335621188479 ], [ -84.284260272943982, 32.744520904198417 ], [ -84.262709462651145, 32.73931856082028 ], [ -84.255525859220199, 32.72245739433577 ], [ -84.235819487646125, 32.738296671942429 ], [ -84.229169800686407, 32.732304687158681 ], [ -84.236304866256333, 32.721063909502341 ], [ -84.219365152760389, 32.720320717591179 ], [ -84.202619590708522, 32.690035647211289 ], [ -84.149325019308677, 32.801189287424592 ], [ -84.124328020883439, 32.800957039952351 ], [ -84.123357263663038, 32.932176861767061 ], [ -84.054190811709688, 32.931480119350347 ], [ -84.053559819516437, 32.948016139373721 ], [ -84.044094936617554, 32.947876790890376 ], [ -84.041522429983502, 33.202652267935925 ], [ -83.86809665255943, 33.20195552551921 ], [ -83.842711351246024, 33.196846081129962 ], [ -83.82227691175666, 33.180263611612141 ], [ -83.807375788423542, 33.193408818540831 ], [ -83.834411377011634, 33.210595131486478 ], [ -83.81339448319001, 33.248590817944681 ], [ -83.832421324709813, 33.272512307585238 ], [ -83.827421925024765, 33.292485590197742 ], [ -83.842711351246024, 33.318032812143969 ], [ -83.839653466001778, 33.327787205977984 ], [ -83.863000177152344, 33.341582705828941 ], [ -83.857078558107915, 33.353845372363132 ], [ -83.864262161538861, 33.377023670092527 ], [ -83.894549786815276, 33.395835715343836 ], [ -83.895423468313624, 33.407959033394683 ], [ -83.912557333253659, 33.417806326217594 ], [ -83.910373129507761, 33.425702740273699 ], [ -83.923915192732309, 33.444189639063879 ], [ -83.943524488584345, 33.441774265352599 ], [ -83.943524488584345, 33.425284694823667 ], [ -83.954057204425652, 33.425238245329219 ], [ -83.96313378443638, 33.419199811051023 ], [ -83.96313378443638, 33.407587437439105 ], [ -83.973132583806475, 33.407540987944657 ], [ -83.973229659528513, 33.385198781115321 ], [ -83.965997518236549, 33.385152331620873 ], [ -83.964395768822897, 33.375165690314617 ], [ -84.007594465130595, 33.368337614630811 ], [ -84.021330679799235, 33.35686458950223 ], [ -84.032688539277885, 33.361648887430341 ], [ -84.032979766444001, 33.342790392684584 ], [ -84.053656895238475, 33.32955228676699 ], [ -84.053705433099495, 33.31775411517728 ], [ -84.061277339418595, 33.309579004154486 ], [ -84.063558618886532, 33.317614766693936 ], [ -84.073023501785414, 33.317614766693936 ], [ -84.073363266812549, 33.301821938581725 ], [ -84.085691883511601, 33.297780832564776 ], [ -84.124182407300381, 33.300103307287159 ], [ -84.145005149677914, 33.316546428321644 ], [ -84.150926768722343, 33.312969817249169 ], [ -84.150587003695193, 33.335637170539641 ], [ -84.247274422846829, 33.335822968517434 ], [ -84.247420036429887, 33.352637685507489 ], [ -84.388082757665529, 33.352498337024151 ], [ -84.384102653061888, 33.319472746471845 ], [ -84.393276308794654, 33.316871574782773 ], [ -84.397062261954204, 33.301589691109484 ], [ -84.402741191693536, 33.305444999148648 ], [ -84.408614272876946, 33.294064873008963 ], [ -84.419098450857234, 33.293553928570041 ], [ -84.432931741247899, 33.256487232000786 ], [ -84.497535634265375, 33.257416221889741 ], [ -84.504476548391224, 33.28105901456361 ], [ -84.512533833320532, 33.280826767091376 ], [ -84.51748469514456, 33.293182332614457 ], [ -84.518261300920869, 33.318357958605098 ], [ -84.534472946501523, 33.335637170539641 ], [ -84.560440702147162, 33.340560816951097 ], [ -84.576992112754937, 33.358583220796795 ], [ -84.586068692765664, 33.357886478380081 ], [ -84.592766917586403, 33.379531942792703 ], [ -84.613929424991085, 33.402942487994331 ], [ -84.627131723188484, 33.460400512626116 ], [ -84.625578511635851, 33.47716878012173 ], [ -84.609561017499288, 33.502530204090164 ], [ -84.62771417752073, 33.511030461574094 ], [ -84.850697111046102, 33.51144850702412 ], [ -84.815070321057505, 33.521202900858135 ], [ -84.832592488885695, 33.547075269265491 ], [ -84.808954550568998, 33.57410887503405 ], [ -84.905787583303692, 33.573365683122887 ], [ -84.901419175811895, 33.71879905023858 ], [ -84.910981134432816, 33.729203736994862 ], [ -84.901758940839031, 33.730643671322738 ], [ -84.901710402978011, 33.78071622633734 ] ] ] } }
]
}
